id,franchise_id,franchise_name,restaurant_franchise_id,country,city,geohash,lng,lat
257698037796,37,Cafe Crepe,26468,IT,Milan,u0ne,9.171,45.533
25769803831,56,The Waffle House,72230,FR,Paris,u09w,2.305,48.873
85899345988,69,Dragonfly Cafe,18952,NL,Amsterdam,u176,4.911,52.392
111669149758,63,Cafe Paris,84488,NL,Amsterdam Zuidoost,u179,4.942,52.31
163208757268,21,The Lazy Daisy,96638,US,Columbus,dphu,-83.015,40.115
154618822662,7,Cafe Roma,41484,US,Tatum,9tym,-103.395,33.382
163208757290,43,The Food House,96638,IT,Milan,u0nd,9.224,45.474
266287972361,10,The Golden Spoon,11263,US,Marina,9q92,-121.792,36.684
171798691894,55,The Steak House,65939,GB,London,gcpu,0.0,51.502
197568495640,25,The Cozy Cafe,24784,US,Oskaloosa,9zq5,-92.646,41.324
163208757306,59,Azalea Cafe,96638,FR,Paris,u09w,2.294,48.871
42,43,The Food House,47732,AT,Vienna,u2e9,16.34,48.163
23,24,The Fisherman's Catch,47732,ES,Barcelona,sp3e,2.163,41.396
51539607572,21,The Lazy Daisy,6934,ES,Barcelona,sp3e,2.174,41.387
257698037775,16,The Spice Tree,26468,US,Morgantown,dpp1,-79.956,39.631
188978561036,13,The Firehouse,3642,US,Atlantic Beach,dq1m,-76.747,34.701
77309411367,40,Crimson Cafe,78190,AT,Vienna,u2ed,16.357,48.213
128849018902,23,The Hungry Pig,5679,ES,Barcelona,sp3e,2.171,41.389
223338299392,1,Savoria,36937,US,Washington,w4ru,100.987,13.368
103079215115,12,The Wooden Spoon,4340,US,Blythewood,dnn6,-80.974,34.214
77309411392,65,Chef's Corner,78190,GB,Paddington,gcpv,-0.177,51.514
25769803840,65,Chef's Corner,72230,GB,London,gcpv,-0.077,51.525
8589934620,29,The Olive Branch,12630,US,Baraboo,dp8p,-89.769,43.479
154618822685,30,The Wine Cellar,41484,US,Auburn,drsb,-71.841,42.2
249108103202,35,Basilica Bistro,55897,ES,Barcelona,sp3e,2.182,41.396
128849018940,61,Blue Water Bistro,5679,FR,Paris,u09w,2.285,48.879
214748364840,41,The Daily Bread,92040,AT,Vienna,u2ed,16.383,48.195
34359738417,50,The Pancake House,50333,US,Irving,u09w,2.283,48.869
257698037779,20,The Brasserie,26468,US,Laramie,9xkg,-105.617,41.325
120259084320,33,The Blue Elephant,59829,US,Portland,u092,1.893,47.939
111669149715,20,The Brasserie,84488,US,Willows,9r10,-122.212,39.527
111669149699,4,The Blue Plate,84488,US,El Paso,9tsk,-106.433,31.776
60129542195,52,The Red Door,71555,FR,Paris,u09w,2.326,48.872
137438953522,51,The Pizzeria,11038,GB,London,gcpu,-0.023,51.501
214748364856,57,The Yellow Submarine,92040,FR,Paris,u09t,2.347,48.865
146028888115,52,The Red Door,70611,AT,Vienna,u2ed,16.302,48.187
214748364857,58,A Tasty Bite,92040,FR,Paris,u09t,2.332,48.866
223338299406,15,The Pearl Kitchen,36937,US,Columbus,dpj5,-82.865,40.007
68719476798,63,Cafe Paris,77517,NL,Amsterdam,u173,4.845,52.358
34359738419,52,The Red Door,50333,FR,Paris,u09w,2.316,48.873
137438953477,6,The Daily Grind,11038,US,Oklahoma City,9y69,-97.526,35.48
137438953518,47,The Juicy Burger,11038,FR,Paris,u09w,2.343,48.875
266287972367,16,The Spice Tree,11263,US,Bordentown,dr4u,-74.752,40.119
180388626465,34,The Tasty Treat,7531,IT,Milan,u0nd,9.239,45.491
51539607598,47,The Juicy Burger,6934,FR,Paris,u09w,2.352,48.869
240518168585,10,The Golden Spoon,93164,US,Phoenix,9tbr,-112.114,33.625
146028888079,16,The Spice Tree,70611,US,Joplin,9ysf,-94.478,37.052
146028888120,57,The Yellow Submarine,70611,AT,Vienna,u2ed,16.355,48.231
68719476761,26,The Silver Spoon,77517,US,Eugene,9rb6,-123.087,44.05
77309411332,5,The Hungry Hippo,78190,US,Laurel,dj8s,-89.133,31.694
128849018935,56,The Waffle House,5679,FR,Paris,u09w,2.334,48.869
266287972399,48,The Local Cafe,11263,FR,Paris,u09t,2.324,48.845
103079215140,37,Cafe Crepe,4340,US,West Springfield,drkr,-72.626,42.121
223338299429,38,Cafe Viva,36937,FR,Paris,u09t,2.324,48.856
266287972426,75,Greenhouse Cafe,11263,GB,Paddington,gcpv,-0.18,51.512
154618822686,31,Bistro 42,41484,US,Detroit,dpsb,-83.041,42.335
137438953492,21,The Lazy Daisy,11038,US,Port Sanilac,dptr,-82.542,43.429
188978561087,64,Chateau de Cuisine,3642,FR,Paris,u09w,2.307,48.873
171798691893,54,The Spice House,65939,GB,London,gcpu,-0.18,51.5
240518168627,52,The Red Door,93164,AT,Vienna,u2ed,16.336,48.198
249108103204,37,Cafe Crepe,55897,US,Cambridge,drt3,-71.081,42.373
68719476786,51,The Pizzeria,77517,GB,London,gcpu,-0.215,51.493
85899345925,6,The Daily Grind,18952,US,West Monroe,9vy2,-92.169,32.51
180388626446,15,The Pearl Kitchen,7531,US,Stevens,dr1u,-76.246,40.246
197568495645,30,The Wine Cellar,24784,ES,Barcelona,sp3e,2.155,41.396
214748364837,38,Cafe Viva,92040,US,Portland,c20f,-122.683,45.521
171798691895,56,The Waffle House,65939,GB,London,gcpv,-0.005,51.507
154618822675,20,The Brasserie,41484,US,Mahanoy City,dr3b,-76.134,40.814
103079215168,65,Chef's Corner,4340,GB,London,gcpv,-0.149,51.506
188978561049,26,The Silver Spoon,3642,ES,Barcelona,sp3e,2.114,41.378
17179869192,9,The Grill House,10902,US,Joshua Tree,9qj6,-116.326,34.135
223338299402,11,The Flaming Wok,36937,US,Metropolis,dn8g,-88.703,37.161
240518168598,23,The Hungry Pig,93164,US,Elko,9rm8,-115.761,40.834
249108103194,27,The Corner Cafe,55897,ES,Barcelona,sp3e,2.182,41.371
8589934605,14,The Gourmet Garden,12630,US,Annapolis,dqct,-76.548,38.976
51539607568,17,The Rustic Table,6934,US,Longmont,9xjk,-104.982,40.158
249108103181,14,The Gourmet Garden,55897,US,Goodlettsville,dn6q,-86.713,36.323
34359738421,54,The Spice House,50333,FR,Paris,u09w,2.294,48.875
21,22,The Red Pepper,47732,ES,Barcelona,sp3e,2.168,41.386
223338299407,16,The Spice Tree,36937,US,Newark,dpj7,-82.41,40.057
25769803832,57,The Yellow Submarine,72230,FR,Paris,u09w,2.286,48.878
146028888134,71,Fire and Spice,70611,FR,Paris,u09w,2.328,48.88
240518168633,58,A Tasty Bite,93164,FR,Paris,u09t,2.384,48.852
8589934603,12,The Wooden Spoon,12630,US,Wittman,dqcs,-76.305,38.797
42949672993,34,The Tasty Treat,89646,US,Austin,9zvb,-92.993,43.666
206158430240,33,The Blue Elephant,53370,US,Crystal Lake,dp90,-88.297,42.228
85899345936,17,The Rustic Table,18952,US,Carson City,9qfy,-119.768,39.143
180388626500,69,Dragonfly Cafe,7531,NL,Amsterdam,u173,4.878,52.362
8589934614,23,The Hungry Pig,12630,ES,Barcelona,sp3e,2.177,41.381
42949672986,27,The Corner Cafe,89646,ES,Barcelona,sp3e,2.218,41.408
197568495641,26,The Silver Spoon,24784,US,Princeton,dp27,-89.457,41.368
17179869233,50,The Pancake House,10902,FR,Paris,u09t,2.387,48.832
85899345962,43,The Food House,18952,AT,Vienna,u2ed,16.37,48.208
206158430294,87,The Red Hen,53370,NL,Amsterdam,u173,4.883,52.361
240518168638,63,Cafe Paris,93164,FR,Paris,u09w,2.307,48.869
103079215147,44,The French Kitchen,4340,US,Lake Worth,gbp8,-0.658,45.055
60129542169,26,The Silver Spoon,71555,ES,Barcelona,sp3e,2.167,41.376
120259084326,39,Cinnamon Grill,59829,FR,Paris,u09t,2.347,48.85
42949673001,42,The Daily Scoop,89646,US,Neihart,c837,-110.736,46.934
146028888133,70,Earth and Vine,70611,FR,Paris,u09w,2.304,48.876
111669149710,15,The Pearl Kitchen,84488,US,Watsonville,9q96,-121.761,36.917
25769803804,29,The Olive Branch,72230,US,Plainville,drkj,-72.837,41.672
146028888104,41,The Daily Bread,70611,US,Aberdeen,cb44,-98.428,45.459
171798691876,37,Cafe Crepe,65939,AT,Vienna,u2ed,16.362,48.194
240518168615,40,Crimson Cafe,93164,US,Casper,9xs7,-106.399,42.811
68719476788,53,The Red Rooster,77517,GB,London,gcpv,-0.183,51.513
188978561099,76,Happy Hour Cafe,3642,GB,London,gcpv,-0.104,51.523
249108103172,5,The Hungry Hippo,55897,US,Abilene,9vc0,-99.765,32.404
249108103229,62,Cafe Luminoso,55897,FR,Paris,u09w,2.385,48.897
42949672996,37,Cafe Crepe,89646,IT,Milan,u0nd,9.192,45.441
34359738398,31,Bistro 42,50333,US,Manistique,f04t,-86.228,45.952
249108103198,31,Bistro 42,55897,ES,Barcelona,sp3e,2.173,41.388
188978561098,75,Greenhouse Cafe,3642,GB,London,gcpv,-0.125,51.523
257698037766,7,Cafe Roma,26468,US,Glendale,9tbp,-112.186,33.621
34359738400,33,The Blue Elephant,50333,AT,Vienna,u2ed,16.369,48.198
257698037781,22,The Red Pepper,26468,ES,Barcelona,sp3e,2.156,41.389
266287972364,13,The Firehouse,11263,US,Cripple Creek,9wvh,-105.174,38.747
163208757313,66,City Bites,96638,GB,London,gcpu,-0.023,51.502
154618822726,71,Fire and Spice,41484,GB,London,gcpv,-0.072,51.506
240518168604,29,The Olive Branch,93164,ES,Barcelona,sp3e,2.16,41.387
197568495690,75,Greenhouse Cafe,24784,GB,London,gcpu,-0.193,51.491
266287972428,77,Harvest Kitchen,11263,GB,London,gcpv,-0.161,51.524
68719476762,27,The Corner Cafe,77517,US,Twin Mountain,drv5,-71.561,44.267
25769803803,28,The Spicy Pickle,72230,ES,Barcelona,sp3e,2.121,41.425
223338299441,50,The Pancake House,36937,GB,London,gcpu,-0.163,51.502
257698037774,15,The Pearl Kitchen,26468,US,Caseyville,9yzg,-90.02,38.642
188978561088,65,Chef's Corner,3642,FR,Paris,u09w,2.345,48.873
266287972377,26,The Silver Spoon,11263,ES,Barcelona,sp3e,2.163,41.395
154618822664,9,The Grill House,41484,US,Payson,9w0f,-111.274,34.255
17179869185,2,Bella Cucina,10902,US,Carrizo Springs,9v0f,-99.845,28.546
17179869204,21,The Lazy Daisy,10902,US,Indianapolis,dp4c,-86.084,39.701
120259084331,44,The French Kitchen,59829,FR,Paris,u09w,2.3,48.87
51539607602,51,The Pizzeria,6934,FR,Paris,u09w,2.332,48.882
154618822663,8,The Green Olive,41484,US,Irvine,9mup,-117.837,33.68
42949672994,35,Basilica Bistro,89646,US,Springfield,9rbd,-123.042,44.086
68719476778,43,The Food House,77517,US,Carrollton,u09t,2.388,48.854
163208757301,54,The Spice House,96638,FR,Paris,u09t,2.381,48.857
60129542193,50,The Pancake House,71555,FR,Paris,u09t,2.288,48.867
77309411390,63,Cafe Paris,78190,GB,London,gcpv,-0.071,51.512
77309411328,1,Savoria,78190,US,Virginia Beach,9s1f,-109.931,22.875
188978561079,56,The Waffle House,3642,FR,Paris,u09t,2.302,48.842
197568495683,68,Delish Cafe,24784,FR,Paris,u09w,2.346,48.876
171798691852,13,The Firehouse,65939,US,Strasburg,dr1g,-76.176,39.987
103079215111,8,The Green Olive,4340,US,Tucson,9t9n,-110.935,32.125
266287972356,5,The Hungry Hippo,11263,US,Bossier City,9vv3,-93.702,32.523
188978561078,55,The Steak House,3642,FR,Paris,u09t,2.299,48.841
180388626452,21,The Lazy Daisy,7531,ES,Barcelona,sp3e,2.146,41.393
154618822704,49,The Olive Tree,41484,AT,Vienna,u2ed,16.353,48.199
206158430213,6,The Daily Grind,53370,US,Ferriday,9vwg,-91.528,31.616
85899345949,30,The Wine Cellar,18952,US,Battle Creek,dpe2,-85.192,42.312
180388626462,31,Bistro 42,7531,US,Lincoln City,9pzz,-124.014,44.985
266287972414,63,Cafe Paris,11263,FR,Paris,u09w,2.296,48.879
154618822693,38,Cafe Viva,41484,IT,Milan,u0nd,9.207,45.474
206158430292,85,The Plum Cafe,53370,NL,Amsterdam Zuidoost,u179,4.947,52.31
171798691873,34,The Tasty Treat,65939,IT,Milan,u0nd,9.221,45.501
60129542148,5,The Hungry Hippo,71555,US,Lake Forest,9mur,-117.716,33.628
17179869200,17,The Rustic Table,10902,US,Norcross,eyz0,-1.124,37.982
34359738410,43,The Food House,50333,FR,Paris,u09t,2.34,48.849
206158430227,20,The Brasserie,53370,US,Clifton,sp1c,2.626,39.564
17179869225,42,The Daily Scoop,10902,US,Vashon,c22v,-122.408,47.383
51539607603,52,The Red Door,6934,GB,London,gcpv,-0.213,51.505
146028888107,44,The French Kitchen,70611,IT,Milan,u0nd,9.206,45.476
137438953515,44,The French Kitchen,11038,FR,Paris,u09t,2.29,48.866
25769803802,27,The Corner Cafe,72230,ES,Barcelona,sp3e,2.191,41.404
163208757314,67,Crimson and Clover,96638,GB,London,u10j,0.023,51.508
137438953503,32,The Orange Peeler,11038,IT,Milan,u0nd,9.197,45.507
77309411364,37,Cafe Crepe,78190,IT,Milan,u0nd,9.213,45.527
85899345948,29,The Olive Branch,18952,US,Cedar Rapids,9zqy,-91.672,41.946
137438953502,31,Bistro 42,11038,IT,Milan,u0nd,9.224,45.487
128849018889,10,The Golden Spoon,5679,US,Williamsburg,dq9k,-76.722,37.288
94489280546,35,Basilica Bistro,95399,US,Worthington,9zu0,-95.622,43.636
163208757275,28,The Spicy Pickle,96638,ES,Barcelona,sp3e,2.146,41.381
42949673030,71,Fire and Spice,89646,NL,Amsterdam,u173,4.899,52.358
249108103173,6,The Daily Grind,55897,US,Glendale,9tbn,-112.183,33.539
14,15,The Pearl Kitchen,47732,US,Carlisle,dr1h,-77.214,40.187
8589934660,69,Dragonfly Cafe,12630,NL,Amsterdam,u173,4.841,52.351
231928234024,41,The Daily Bread,33573,US,Olga,c28s,-122.824,48.603
137438953488,17,The Rustic Table,11038,ES,Barcelona,sp3e,2.174,41.394
60129542210,67,Crimson and Clover,71555,GB,London,gcpv,-0.105,51.536
137438953487,16,The Spice Tree,11038,ES,Barcelona,sp3e,2.16,41.388
197568495621,6,The Daily Grind,24784,US,Colorado City,9vb2,-100.855,32.388
171798691867,28,The Spicy Pickle,65939,IT,Milan,u0nd,9.183,45.467
231928234030,47,The Juicy Burger,33573,FR,Paris,u09w,2.312,48.872
163208757254,7,Cafe Roma,96638,US,Sylacauga,djfs,-86.195,33.218
60129542187,44,The French Kitchen,71555,FR,Paris,u09t,2.334,48.85
154618822722,67,Crimson and Clover,41484,GB,London,gcpu,-0.16,51.502
163208757250,3,Spice Bazaar,96638,US,Houston,9vk1,-95.361,29.753
223338299418,27,The Corner Cafe,36937,US,Genoa City,dp91,-88.306,42.528
231928234027,44,The French Kitchen,33573,FR,Paris,u09t,2.307,48.855
34359738438,71,Fire and Spice,50333,GB,London,gcpv,-0.284,51.558
77309411339,12,The Wooden Spoon,78190,US,Huntersville,dnq3,-80.873,35.44
180388626453,22,The Red Pepper,7531,US,Elk Grove Village,dp3q,-87.937,42.008
77309411370,43,The Food House,78190,FR,Paris,u09t,2.274,48.849
8,9,The Grill House,47732,US,Burnsville,dnme,-82.198,35.77
77309411350,23,The Hungry Pig,78190,US,Silverthorne,9xh6,-106.235,39.841
240518168588,13,The Firehouse,93164,US,Amarillo,9wr8,-101.742,35.195
240518168594,19,The Tasting Room,93164,US,Lawrence,9yum,-95.261,38.922
128849018939,60,Big City Grill,5679,FR,Paris,u09w,2.344,48.874
240518168620,45,The Green Bean,93164,IT,Milan,u0n6,9.138,45.444
240518168628,53,The Red Rooster,93164,AT,Vienna,u2ed,16.37,48.202
103079215112,9,The Grill House,4340,US,Monroe,9vy8,-92.083,32.494
206158430263,56,The Waffle House,53370,AT,Vienna,u2ed,16.388,48.219
46,47,The Juicy Burger,47732,FR,Paris,u09t,2.266,48.84
154618822680,25,The Cozy Cafe,41484,ES,Barcelona,sp3e,2.121,41.39
266287972406,55,The Steak House,11263,FR,Paris,u09w,2.321,48.87
171798691845,6,The Daily Grind,65939,US,Sevierville,dnks,-83.551,35.868
17179869235,52,The Red Door,10902,FR,Paris,u09t,2.342,48.843
154618822688,33,The Blue Elephant,41484,US,Oswego,dr9x,-76.509,43.458
223338299434,43,The Food House,36937,FR,Paris,u09w,2.297,48.877
42949672969,10,The Golden Spoon,89646,US,Owasso,9y7y,-95.847,36.265
34359738393,26,The Silver Spoon,50333,US,Aberdeen,cb1f,-98.441,45.458
42949672985,26,The Silver Spoon,89646,ES,Barcelona,sp3e,2.19,41.404
120259084306,19,The Tasting Room,59829,ES,Barcelona,sp3e,2.175,41.38
34359738442,75,Greenhouse Cafe,50333,NL,Amsterdam,u173,4.881,52.364
249108103205,38,Cafe Viva,55897,US,Burdett,dr93,-76.867,42.418
60129542162,19,The Tasting Room,71555,US,Leesburg,dqby,-77.486,39.094
146028888135,72,Flamingo Cafe,70611,GB,London,gcpu,-0.191,51.492
111669149754,59,Azalea Cafe,84488,GB,London,gcpv,-0.088,51.516
223338299394,3,Spice Bazaar,36937,US,Pompano Beach,dhwv,-80.159,26.231
128849018949,70,Earth and Vine,5679,GB,London,gcpv,-0.197,51.51
171798691859,20,The Brasserie,65939,ES,Barcelona,sp3e,2.201,41.406
223338299414,23,The Hungry Pig,36937,ES,Barcelona,sp3e,2.172,41.392
68719476782,47,The Juicy Burger,77517,FR,Paris,u09w,2.31,48.873
85899345987,68,Delish Cafe,18952,NL,Amsterdam,u173,4.904,52.374
146028888074,11,The Flaming Wok,70611,US,Kiowa,9y5v,-95.922,34.686
17179869244,61,Blue Water Bistro,10902,FR,Paris,u09t,2.308,48.867
60129542154,11,The Flaming Wok,71555,US,Young Harris,dnhq,-83.846,34.959
8589934610,19,The Tasting Room,12630,US,Troy,dph5,-84.226,40.024
111669149718,23,The Hungry Pig,84488,US,Fort Madison,9zpp,-91.37,40.624
180388626449,18,The Harvest Room,7531,ES,Barcelona,sp3e,2.11,41.384
257698037782,23,The Hungry Pig,26468,ES,Barcelona,sp3e,2.15,41.394
34359738425,58,A Tasty Bite,50333,FR,Paris,u09w,2.302,48.892
206158430247,40,Crimson Cafe,53370,US,Lithia Springs,u20f,12.346,45.434
85899345944,25,The Cozy Cafe,18952,ES,Barcelona,sp3e,2.179,41.396
163208757320,73,Fresh Harvest,96638,GB,London,gcpv,-0.089,51.528
85899345976,57,The Yellow Submarine,18952,GB,London,gcpu,-0.186,51.495
137438953493,22,The Red Pepper,11038,US,South Portland,drvb,-70.337,43.64
257698037806,47,The Juicy Burger,26468,FR,Paris,u09t,2.33,48.842
51539607556,5,The Hungry Hippo,6934,US,Conway,dnpb,-79.06,33.84
111669149744,49,The Olive Tree,84488,FR,Paris,u09w,2.315,48.871
257698037816,57,The Yellow Submarine,26468,FR,Paris,u09w,2.325,48.871
37,38,Cafe Viva,47732,IT,Milan,u0nd,9.205,45.477
163208757298,51,The Pizzeria,96638,FR,Paris,u09t,2.372,48.837
57,58,A Tasty Bite,47732,GB,London,gcpu,-0.184,51.493
120259084341,54,The Spice House,59829,GB,London,gcpu,-0.119,51.502
94489280530,19,The Tasting Room,95399,US,Southport,sxpn,32.622,40.454
137438953525,54,The Spice House,11038,GB,London,gcpv,-0.134,51.514
223338299443,52,The Red Door,36937,GB,London,gcpv,-0.131,51.508
206158430287,80,The Market Cafe,53370,GB,London,gcpv,-0.021,51.507
188978561095,72,Flamingo Cafe,3642,GB,London,gcpv,-0.142,51.507
8589934644,53,The Red Rooster,12630,FR,Paris,u09w,2.338,48.891
180388626436,5,The Hungry Hippo,7531,US,Lincoln,djfz,-86.06,33.58
42949672972,13,The Firehouse,89646,US,El Cerrito,9q9p,-122.311,37.915
137438953509,38,Cafe Viva,11038,AT,Vienna,u2ed,16.378,48.211
17179869249,66,City Bites,10902,FR,Paris,u09w,2.293,48.878
137438953519,48,The Local Cafe,11038,FR,Paris,u09w,2.3,48.885
154618822695,40,Crimson Cafe,41484,IT,Milan,u0nd,9.2,45.484
111669149704,9,The Grill House,84488,US,Rancho Mirage,9qj0,-116.406,33.799
128849018954,75,Greenhouse Cafe,5679,NL,Amsterdam,u179,4.989,52.359
197568495649,34,The Tasty Treat,24784,US,Hartford,drkm,-72.66,41.735
25769803812,37,Cafe Crepe,72230,US,Deadwood,9xyh,-103.73,44.376
257698037798,39,Cinnamon Grill,26468,US,Tacoma,c22u,-122.463,47.178
25769803820,45,The Green Bean,72230,US,Cloquet,cbq1,-92.465,46.714
257698037790,31,Bistro 42,26468,IT,Milan,u0nd,9.188,45.463
77309411349,22,The Red Pepper,78190,US,Manhattan,9ygq,-96.557,39.18
154618822709,54,The Spice House,41484,FR,Paris,u09t,2.334,48.853
25769803810,35,Basilica Bistro,72230,US,Whitehall,dpdw,-86.317,43.409
34359738392,25,The Cozy Cafe,50333,IT,Milan,u0nd,9.194,45.457
171798691861,22,The Red Pepper,65939,US,Westmont,dp3m,-87.955,41.816
257698037763,4,The Blue Plate,26468,US,West Palm Beach,dhxp,-80.073,26.698
223338299395,4,The Blue Plate,36937,US,Dublin,djv0,-82.939,32.487
51539607581,30,The Wine Cellar,6934,US,Bend,9rcf,-121.264,44.052
94489280540,29,The Olive Branch,95399,ES,Barcelona,sp3e,2.148,41.409
188978561026,3,Spice Bazaar,3642,US,Houston,9vk0,-95.403,29.681
94489280542,31,Bistro 42,95399,US,Long Eddy,dr6w,-75.114,41.845
249108103234,67,Crimson and Clover,55897,GB,London,gcpv,-0.152,51.513
214748364871,72,Flamingo Cafe,92040,GB,London,gcpv,-0.135,51.511
60129542160,17,The Rustic Table,71555,US,London,dns5,-84.108,37.145
111669149712,17,The Rustic Table,84488,US,Vandalia,dnbt,-89.129,38.97
8589934604,13,The Firehouse,12630,US,Colorado Springs,9wvm,-104.868,38.88
17179869216,33,The Blue Elephant,10902,US,Hill City,9xy4,-103.737,43.959
223338299397,6,The Daily Grind,36937,US,Albuquerque,9whp,-106.653,35.121
171798691853,14,The Gourmet Garden,65939,US,Huntingdon,dr0w,-78.011,40.484
94489280539,28,The Spicy Pickle,95399,ES,Barcelona,sp3e,2.147,41.395
249108103200,33,The Blue Elephant,55897,ES,Barcelona,sp3e,2.159,41.392
266287972371,20,The Brasserie,11263,US,Eureka,9ppx,-124.192,40.768
85899345950,31,Bistro 42,18952,US,Pinedale,9x9g,-109.874,42.867
137438953481,10,The Golden Spoon,11038,US,Larkspur,9q8z,-122.506,37.944
214748364808,9,The Grill House,92040,US,Cleveland,dn78,-84.87,35.21
137438953496,25,The Cozy Cafe,11038,IT,Milan,u0nd,9.257,45.448
8589934656,65,Chef's Corner,12630,GB,London,gcpv,-0.142,51.519
120259084340,53,The Red Rooster,59829,GB,London,gcpu,-0.187,51.502
249108103224,57,The Yellow Submarine,55897,FR,Paris,u09t,2.331,48.855
154618822684,29,The Olive Branch,41484,US,Merrillville,dp3g,-87.33,41.469
68719476759,24,The Fisherman's Catch,77517,US,South Deerfield,drs3,-72.622,42.424
128849018887,8,The Green Olive,5679,US,Chinle,9w6j,-109.547,36.151
206158430242,35,Basilica Bistro,53370,US,Boise,9rv2,-116.192,43.608
257698037830,71,Fire and Spice,26468,GB,London,gcpv,-0.158,51.518
223338299442,51,The Pizzeria,36937,GB,London,gcpv,-0.147,51.508
8589934655,64,Chateau de Cuisine,12630,GB,London,gcpv,-0.081,51.517
266287972375,24,The Fisherman's Catch,11263,ES,Barcelona,sp3e,2.157,41.389
240518168635,60,Big City Grill,93164,FR,Paris,u09w,2.327,48.868
231928234021,38,Cafe Viva,33573,AT,Vienna,u2ed,16.351,48.205
146028888129,66,City Bites,70611,FR,Paris,u09w,2.301,48.871
51539607586,35,Basilica Bistro,6934,US,Portland,c20g,-122.48,45.541
154618822681,26,The Silver Spoon,41484,ES,Barcelona,sp3e,2.123,41.403
128849018917,38,Cafe Viva,5679,IT,Milan,u0nd,9.168,45.457
94489280526,15,The Pearl Kitchen,95399,US,Bowie,dqcm,-76.734,38.943
51539607594,43,The Food House,6934,FR,Paris,u09t,2.335,48.855
25769803825,50,The Pancake House,72230,AT,Vienna,u2ed,16.368,48.212
206158430268,61,Blue Water Bistro,53370,FR,Paris,u09t,2.285,48.857
197568495672,57,The Yellow Submarine,24784,FR,Paris,u09t,2.367,48.859
27,28,The Spicy Pickle,47732,US,Pierce,9zd8,-97.526,42.199
77309411382,55,The Steak House,78190,FR,Paris,u09w,2.334,48.885
120259084305,18,The Harvest Room,59829,US,Redding,9r0y,-122.385,40.602
120259084311,24,The Fisherman's Catch,59829,ES,Barcelona,sp3e,2.146,41.423
163208757258,11,The Flaming Wok,96638,US,Jellico,dns0,-84.113,36.581
128849018898,19,The Tasting Room,5679,ES,Barcelona,sp3e,2.168,41.375
206158430253,46,The Italian Table,53370,US,Hayward,cbpn,-91.217,46.085
8589934612,21,The Lazy Daisy,12630,US,Allentown,dr4q,-75.531,40.576
137438953495,24,The Fisherman's Catch,11038,US,Colchester,drgv,-73.183,44.514
223338299424,33,The Blue Elephant,36937,IT,Milan,u0nd,9.196,45.479
103079215177,74,Garden of Eatin',4340,GB,London,gcpv,-0.279,51.561
231928233992,9,The Grill House,33573,US,Blackwell,9ydc,-97.298,36.812
120259084308,21,The Lazy Daisy,59829,ES,Barcelona,sp3e,2.171,41.386
4,5,The Hungry Hippo,47732,US,Fort Worth,9vfd,-97.435,32.735
111669149724,29,The Olive Branch,84488,ES,Barcelona,sp3e,2.158,41.392
188978561050,27,The Corner Cafe,3642,ES,Barcelona,sp3e,2.179,41.378
223338299423,32,The Orange Peeler,36937,IT,Milan,u0nd,9.198,45.469
51539607564,13,The Firehouse,6934,US,Olathe,9yut,-94.824,38.848
128849018943,64,Chateau de Cuisine,5679,GB,London,gcpu,-0.16,51.493
214748364822,23,The Hungry Pig,92040,ES,Barcelona,sp3e,2.199,41.394
266287972366,15,The Pearl Kitchen,11263,US,Springfield,dph6,-83.815,39.895
231928233995,12,The Wooden Spoon,33573,US,Saint Louis,9yzg,-90.184,38.633
128849018893,14,The Gourmet Garden,5679,US,Columbia,9yym,-92.244,38.962
180388626450,19,The Tasting Room,7531,ES,Barcelona,sp3e,2.185,41.384
188978561089,66,City Bites,3642,FR,Paris,u09w,2.291,48.875
128849018955,76,Happy Hour Cafe,5679,NL,Amsterdam,u173,4.873,52.365
206158430252,45,The Green Bean,53370,US,Hillsboro,c20e,-122.921,45.533
146028888089,26,The Silver Spoon,70611,ES,Barcelona,sp3e,2.166,41.386
8589934642,51,The Pizzeria,12630,FR,Paris,u09w,2.334,48.884
146028888083,20,The Brasserie,70611,US,Effingham,dncn,-88.566,39.141
42949673029,70,Earth and Vine,89646,GB,London,gcpv,-0.128,51.529
146028888136,73,Fresh Harvest,70611,GB,London,gcpu,-0.185,51.494
42949673003,44,The French Kitchen,89646,AT,Vienna,u2ed,16.376,48.183
266287972369,18,The Harvest Room,11263,US,Entriken,dr0m,-78.201,40.34
249108103203,36,Blue Ocean Grill,55897,US,Chicago,dp3w,-87.626,41.886
266287972403,52,The Red Door,11263,FR,Paris,u09t,2.335,48.856
223338299439,48,The Local Cafe,36937,GB,London,gcpu,-0.106,51.499
85899345924,5,The Hungry Hippo,18952,US,Deming,9ter,-107.791,32.266
103079215145,42,The Daily Scoop,4340,US,Gillette,9xug,-105.53,44.294
8589934606,15,The Pearl Kitchen,12630,US,Ely,9qyr,-114.882,39.251
8589934608,17,The Rustic Table,12630,US,Parkville,dr18,-76.563,39.398
17179869227,44,The French Kitchen,10902,AT,Vienna,u2ed,16.297,48.194
103079215136,33,The Blue Elephant,4340,ES,Barcelona,sp3e,2.166,41.392
8589934597,6,The Daily Grind,12630,US,Manchester,dn6c,-86.062,35.461
64,65,Chef's Corner,47732,GB,London,gcpv,-0.057,51.515
206158430238,31,Bistro 42,53370,US,Deerfield,dp3x,-87.89,42.153
111669149730,35,Basilica Bistro,84488,IT,Milan,u0nd,9.145,45.501
120259084324,37,Cafe Crepe,59829,FR,Paris 13,u09t,2.36,48.836
68719476736,1,Savoria,77517,US,Fort Lauderdale,dhxh,-80.137,26.106
128849018946,67,Crimson and Clover,5679,GB,London,gcpu,-0.113,51.499
266287972390,39,Cinnamon Grill,11263,IT,Milan,u0nd,9.19,45.47
214748364843,44,The French Kitchen,92040,FR,Paris,u09t,2.324,48.824
17179869254,71,Fire and Spice,10902,GB,London,gcpu,-0.017,51.501
240518168618,43,The Food House,93164,US,North Conway,drv6,-71.125,44.049
8589934598,7,Cafe Roma,12630,US,Lincolnton,dnq1,-81.24,35.471
60129542202,59,Azalea Cafe,71555,GB,London,gcpv,-0.077,51.511
111669149751,56,The Waffle House,84488,GB,London,gcpu,-0.17,51.496
77309411361,34,The Tasty Treat,78190,IT,Milan,u0nd,9.144,45.473
137438953523,52,The Red Door,11038,GB,London,gcpv,-0.132,51.51
214748364863,64,Chateau de Cuisine,92040,FR,Paris,u09w,2.327,48.881
206158430214,7,Cafe Roma,53370,US,Prattville,djf8,-86.409,32.486
154618822731,76,Happy Hour Cafe,41484,GB,Paddington,gcpv,-0.172,51.516
77309411334,7,Cafe Roma,78190,US,Lubbock,9tzw,-101.846,33.536
257698037812,53,The Red Rooster,26468,FR,Paris,u09t,2.282,48.865
77309411373,46,The Italian Table,78190,FR,Paris,u09t,2.328,48.857
77309411358,31,Bistro 42,78190,US,Wilmington,drgs,-73.824,44.364
85899345928,9,The Grill House,18952,US,Eloy,9tbd,-111.671,32.806
154618822728,73,Fresh Harvest,41484,GB,London,gcpv,-0.119,51.511
111669149756,61,Blue Water Bistro,84488,GB,London,gcpv,-0.124,51.52
103079215172,69,Dragonfly Cafe,4340,GB,London,gcpv,-0.127,51.51
34359738420,53,The Red Rooster,50333,FR,Paris,u09w,2.343,48.874
197568495638,23,The Hungry Pig,24784,US,Pittsburgh,dppq,-79.714,40.446
85899345961,42,The Daily Scoop,18952,AT,Vienna,u2ed,16.378,48.183
146028888103,40,Crimson Cafe,70611,US,New York,u0j2,7.559,45.058
22,23,The Hungry Pig,47732,ES,Barcelona,sp3e,2.132,41.389
34359738387,20,The Brasserie,50333,US,East Syracuse,dr9v,-76.079,43.091
111669149740,45,The Green Bean,84488,FR,Paris,u09t,2.33,48.857
266287972412,61,Blue Water Bistro,11263,FR,Paris,u09w,2.286,48.876
85899345973,54,The Spice House,18952,FR,Paris,u09w,2.324,48.881
154618822691,36,Blue Ocean Grill,41484,US,North Conway,drv6,-71.141,44.074
34,35,Basilica Bistro,47732,IT,Milan,u0nd,9.207,45.447
249108103219,52,The Red Door,55897,AT,Donauinsel,u2ed,16.4,48.227
60129542159,16,The Spice Tree,71555,US,Batesville,9yqg,-91.638,35.791
8589934640,49,The Olive Tree,12630,FR,Paris,u09w,2.321,48.88
249108103197,30,The Wine Cellar,55897,ES,Barcelona,sp3e,2.168,41.387
26,27,The Corner Cafe,47732,US,Providence,drmn,-71.428,41.844
180388626439,8,The Green Olive,7531,US,Piney Creek,dnqp,-81.332,36.555
77309411352,25,The Cozy Cafe,78190,ES,Barcelona,sp3e,2.161,41.375
103079215120,17,The Rustic Table,4340,US,Tulsa,9y7v,-95.851,36.168
42949672977,18,The Harvest Room,89646,US,Lancaster,dr1e,-76.331,40.057
214748364814,15,The Pearl Kitchen,92040,US,Chico,9r13,-121.837,39.726
171798691900,61,Blue Water Bistro,65939,GB,London,gcpv,-0.087,51.519
266287972429,78,The Hot Spot,11263,GB,London,gcpv,-0.13,51.527
128849018892,13,The Firehouse,5679,US,Saint Ann,9yzs,-90.408,38.715
240518168597,22,The Red Pepper,93164,US,Philadelphia,dr4e,-75.15,39.907
257698037828,69,Dragonfly Cafe,26468,GB,Paddington,gcpv,-0.175,51.516
120259084293,6,The Daily Grind,59829,US,Mobile,dj3q,-88.062,30.684
154618822732,77,Harvest Kitchen,41484,GB,London,gcpv,-0.212,51.52
154618822738,83,The Pantry,41484,NL,Amsterdam,u176,4.847,52.386
120259084295,8,The Green Olive,59829,US,Mesa,9tbw,-111.714,33.416
8589934645,54,The Spice House,12630,FR,Paris,u09w,2.36,48.902
154618822703,48,The Local Cafe,41484,AT,Vienna,u2ed,16.383,48.196
231928234020,37,Cafe Crepe,33573,AT,Vienna,u2ed,16.373,48.204
231928233988,5,The Hungry Hippo,33573,US,Pinetop,9w1f,-109.95,34.135
128849018937,58,A Tasty Bite,5679,FR,Paris,u09w,2.3,48.873
103079215105,2,Bella Cucina,4340,US,Miami,dhwc,-80.367,25.579
206158430258,51,The Pizzeria,53370,AT,Vienna,u2ed,16.369,48.195
146028888071,8,The Green Olive,70611,US,Madison,djuw,-83.475,33.557
206158430245,38,Cafe Viva,53370,US,Cody,9xfm,-109.058,44.526
85899345921,2,Bella Cucina,18952,US,Staten Island,qqgu,106.824,-6.195
180388626479,48,The Local Cafe,7531,FR,Paris,u09t,2.344,48.86
231928233986,3,Spice Bazaar,33573,US,Harvey,9vrf,-90.058,29.89
42949672995,36,Blue Ocean Grill,89646,US,Burlington,drgv,-73.219,44.479
128849018938,59,Azalea Cafe,5679,FR,Paris,u09w,2.298,48.874
180388626499,68,Delish Cafe,7531,NL,Amsterdam Zuidoost,u179,4.948,52.305
85899345960,41,The Daily Bread,18952,US,Griante,u0nt,9.234,45.988
17179869213,30,The Wine Cellar,10902,US,Geneva,dr95,-77.006,42.857
68719476785,50,The Pancake House,77517,US,Gresham,u0z5,9.921,49.803
154618822667,12,The Wooden Spoon,41484,US,Soddy Daisy,dn72,-85.181,35.251
146028888139,76,Happy Hour Cafe,70611,GB,London,gcpu,-0.16,51.5
62,63,Cafe Paris,47732,GB,London,gcpv,-0.203,51.512
146028888110,47,The Juicy Burger,70611,IT,Milan,u0nd,9.161,45.491
163208757260,13,The Firehouse,96638,US,Saint Robert,9ywr,-92.15,37.824
8589934658,67,Crimson and Clover,12630,GB,London,gcpv,-0.114,51.526
60129542165,22,The Red Pepper,71555,US,Golden,9xj4,-105.222,39.756
94489280523,12,The Wooden Spoon,95399,US,Bishop,9qeu,-118.396,37.363
8589934619,28,The Spicy Pickle,12630,US,Fontana,dp94,-88.576,42.549
266287972365,14,The Gourmet Garden,11263,US,Charles Town,dqbx,-77.851,39.293
154618822692,37,Cafe Crepe,41484,US,Lebanon,u0h9,6.54,45.314
197568495624,9,The Grill House,24784,US,Ontario,9qh3,-117.563,34.069
77309411357,30,The Wine Cellar,78190,US,Springfield,9rbd,-123.04,44.084
17179869248,65,Chef's Corner,10902,FR,Paris,u09w,2.325,48.875
8589934617,26,The Silver Spoon,12630,ES,Barcelona,sp3e,2.163,41.394
206158430255,48,The Local Cafe,53370,US,Walker,cbke,-94.572,47.091
60129542185,42,The Daily Scoop,71555,AT,Vienna,u2ed,16.36,48.22
146028888072,9,The Grill House,70611,US,Atlanta,dnh0,-84.365,33.849
231928234031,48,The Local Cafe,33573,FR,Paris,u09w,2.324,48.873
206158430254,47,The Juicy Burger,53370,US,Finlayson,cbjy,-92.855,46.18
128849018934,55,The Steak House,5679,FR,Paris,u09w,2.3,48.869
17179869202,19,The Tasting Room,10902,US,Colorado Springs,9wvs,-104.727,38.808
214748364846,47,The Juicy Burger,92040,FR,Paris,u09t,2.342,48.848
171798691898,59,Azalea Cafe,65939,GB,London,gcpv,-0.148,51.515
206158430274,67,Crimson and Clover,53370,FR,Paris,u09w,2.347,48.873
206158430281,74,Garden of Eatin',53370,GB,London,gcpu,-0.18,51.498
94489280545,34,The Tasty Treat,95399,US,Wolfeboro,drtr,-71.196,43.578
188978561064,41,The Daily Bread,3642,IT,Milan,u0nd,9.202,45.478
34359738391,24,The Fisherman's Catch,50333,US,Mableton,u20f,12.376,45.422
146028888076,13,The Firehouse,70611,US,Henderson,dq2n,-78.441,36.334
77309411383,56,The Waffle House,78190,GB,London,gcpu,-0.276,51.461
85899345953,34,The Tasty Treat,18952,US,Watertown,9zfz,-97.061,44.892
137438953476,5,The Hungry Hippo,11038,US,Amarillo,9wr8,-101.92,35.189
103079215118,15,The Pearl Kitchen,4340,US,West Memphis,9yrb,-90.158,35.16
77309411384,57,The Yellow Submarine,78190,GB,London,gcpu,-0.144,51.491
8589934630,39,Cinnamon Grill,12630,AT,Vienna,u2ed,16.369,48.216
266287972360,9,The Grill House,11263,US,Sallisaw,9yk9,-94.806,35.451
163208757304,57,The Yellow Submarine,96638,FR,Paris,u09w,2.289,48.869
137438953516,45,The Green Bean,11038,FR,Paris,u09w,2.338,48.872
180388626497,66,City Bites,7531,GB,London,gcpv,-0.263,51.521
111669149757,62,Cafe Luminoso,84488,GB,London,gcpv,-0.223,51.573
214748364866,67,Crimson and Clover,92040,GB,London,gcpu,-0.175,51.494
266287972357,6,The Daily Grind,11263,US,San Diego,9mud,-117.224,32.726
31,32,The Orange Peeler,47732,US,Jackson,9x9p,-110.765,43.483
58,59,Azalea Cafe,47732,GB,London,gcpu,-0.137,51.494
85899345958,39,Cinnamon Grill,18952,IT,Milan,u0nd,9.212,45.485
120259084333,46,The Italian Table,59829,FR,Paris,u09w,2.306,48.874
34359738371,4,The Blue Plate,50333,US,Las Vegas,9qqj,-115.146,36.172
163208757277,30,The Wine Cellar,96638,ES,Barcelona,sp3e,2.197,41.387
163208757285,38,Cafe Viva,96638,US,Bay City,dpu2,-83.891,43.597
111669149735,40,Crimson Cafe,84488,AT,Vienna,u2ed,16.34,48.195
257698037809,50,The Pancake House,26468,FR,Paris,u09t,2.366,48.856
266287972409,58,A Tasty Bite,11263,FR,Paris,u09w,2.327,48.871
171798691862,23,The Hungry Pig,65939,US,Fennville,dpdd,-86.212,42.621
146028888113,50,The Pancake House,70611,US,Billings,c84u,-108.581,45.752
188978561103,80,The Market Cafe,3642,NL,Amsterdam,u173,4.914,52.378
257698037827,68,Delish Cafe,26468,GB,London,gcpv,-0.158,51.515
68719476779,44,The French Kitchen,77517,FR,Paris,u09t,2.372,48.863
249108103225,58,A Tasty Bite,55897,FR,Paris,u09t,2.333,48.855
146028888094,31,Bistro 42,70611,US,Grand Rapids,dpeh,-85.532,42.913
214748364870,71,Fire and Spice,92040,GB,London,gcpv,-0.186,51.511
34359738434,67,Crimson and Clover,50333,GB,London,gcpv,-0.319,51.514
34359738372,5,The Hungry Hippo,50333,US,Enid,9y6r,-97.922,36.391
25769803813,38,Cafe Viva,72230,US,Newport,9pzv,-124.061,44.638
77309411342,15,The Pearl Kitchen,78190,US,Guymon,9wxb,-101.474,36.69
25769803811,36,Blue Ocean Grill,72230,US,Jackson,9x9p,-110.762,43.484
214748364842,43,The Food House,92040,US,Bellingham,c28v,-122.486,48.781
94489280563,52,The Red Door,95399,GB,London,gcpu,-0.159,51.494
34359738374,7,Cafe Roma,50333,US,Virginia Beach,dq9c,-75.984,36.848
94489280520,9,The Grill House,95399,US,Selma,9qdb,-119.613,36.563
206158430212,5,The Hungry Hippo,53370,US,Jacksonville,djmv,-81.649,30.48
223338299432,41,The Daily Bread,36937,FR,Paris,u09w,2.338,48.871
42949672984,25,The Cozy Cafe,89646,ES,Barcelona,sp3e,2.149,41.398
249108103174,7,Cafe Roma,55897,US,Myrtle Beach,djzz,-78.921,33.722
137438953506,35,Basilica Bistro,11038,AT,Vienna,u2ed,16.273,48.188
77309411338,11,The Flaming Wok,78190,US,Memphis,dn20,-89.792,35.206
249108103213,46,The Italian Table,55897,IT,Milan,u0nd,9.198,45.485
94489280571,60,Big City Grill,95399,GB,London,gcpv,-0.126,51.524
85899345945,26,The Silver Spoon,18952,US,Newburgh,dr7k,-74.073,41.505
180388626478,47,The Juicy Burger,7531,FR,Paris,u09t,2.324,48.86
146028888137,74,Garden of Eatin',70611,GB,London,gcpu,-0.18,51.496
163208757263,16,The Spice Tree,96638,US,Osage Beach,9yy1,-92.63,38.145
120259084342,55,The Steak House,59829,GB,London,gcpv,-0.224,51.504
137438953504,33,The Blue Elephant,11038,US,Park City,u055,4.279,45.532
51539607576,25,The Cozy Cafe,6934,ES,Barcelona,sp3e,2.155,41.393
197568495677,62,Cafe Luminoso,24784,FR,Paris,u09t,2.337,48.866
17179869188,5,The Hungry Hippo,10902,US,Macon,dju6,-83.72,32.813
257698037805,46,The Italian Table,26468,FR,Paris,u09t,2.33,48.831
51539607607,56,The Waffle House,6934,GB,London,gcpv,-0.286,51.555
25769803780,5,The Hungry Hippo,72230,US,Atlanta,dnh0,-84.349,33.919
223338299430,39,Cinnamon Grill,36937,FR,Paris,u09t,2.33,48.865
180388626494,63,Cafe Paris,7531,GB,London,gcpv,-0.134,51.515
206158430273,66,City Bites,53370,FR,Paris,u09w,2.293,48.871
197568495623,8,The Green Olive,24784,US,Alpharetta,dnh1,-84.304,34.042
42949672987,28,The Spicy Pickle,89646,US,Oak Brook,dp3q,-87.954,41.847
188978561043,20,The Brasserie,3642,US,Glen Burnie,sw8m,22.89,37.532
257698037799,40,Crimson Cafe,26468,US,Newman Lake,c2kx,-117.103,47.767
257698037784,25,The Cozy Cafe,26468,US,Hartford,drkm,-72.673,41.768
223338299405,14,The Gourmet Garden,36937,US,Indianapolis,dp4e,-86.257,39.911
206158430210,3,Spice Bazaar,53370,US,Sarasota,dhv7,-82.55,27.382
154618822734,79,The Huckleberry Cafe,41484,NL,Amsterdam,u173,4.912,52.362
51539607599,48,The Local Cafe,6934,FR,Paris,u09w,2.318,48.871
68719476755,20,The Brasserie,77517,ES,Barcelona,sp3e,2.163,41.399
240518168637,62,Cafe Luminoso,93164,FR,Paris,u09w,2.303,48.869
60129542181,38,Cafe Viva,71555,AT,Vienna,u2ed,16.375,48.208
249108103210,43,The Food House,55897,US,Cave Spring,u20f,12.336,45.432
85899345929,10,The Golden Spoon,18952,US,Lenoir City,dnk5,-84.278,35.827
188978561029,6,The Daily Grind,3642,US,Patagonia,9t97,-110.701,31.522
223338299409,18,The Harvest Room,36937,US,Redding,9r0y,-122.358,40.578
34359738430,63,Cafe Paris,50333,GB,London,gcpu,-0.134,51.499
111669149761,66,City Bites,84488,NL,Amsterdam,u173,4.821,52.379
51539607565,14,The Gourmet Garden,6934,US,Arcola,dp11,-88.298,39.682
231928234036,53,The Red Rooster,33573,GB,London,gcpv,-0.146,51.514
146028888125,62,Cafe Luminoso,70611,FR,Paris,u09t,2.337,48.854
163208757255,8,The Green Olive,96638,US,Phoenix,9tbq,-112.067,33.455
197568495668,53,The Red Rooster,24784,FR,Paris,u09t,2.332,48.849
85899345968,49,The Olive Tree,18952,FR,Paris,u09t,2.309,48.867
51539607588,37,Cafe Crepe,6934,AT,Vienna,u2ed,16.412,48.179
137438953479,8,The Green Olive,11038,US,Kingsport,dnt2,-82.566,36.563
68719476767,32,The Orange Peeler,77517,IT,Milan,u0nd,9.185,45.467
206158430229,22,The Red Pepper,53370,US,Midway,9x0w,-111.49,40.532
266287972420,69,Dragonfly Cafe,11263,GB,London,gcpu,-0.156,51.497
17179869264,81,The Oak Room,10902,NL,Amsterdam,u173,4.893,52.375
154618822721,66,City Bites,41484,GB,London,gcpu,-0.117,51.501
111669149707,12,The Wooden Spoon,84488,US,Burlington,dnrt,-79.435,36.063
249108103170,3,Spice Bazaar,55897,US,Waco,9vdg,-97.138,31.518
8589934601,10,The Golden Spoon,12630,US,Roanoke,dnx5,-79.947,37.256
231928233991,8,The Green Olive,33573,US,Statesville,dnqk,-80.988,35.987
240518168613,38,Cafe Viva,93164,US,Binghamton,dr6p,-75.906,42.13
8589934654,63,Cafe Paris,12630,GB,London,gcpv,-0.164,51.516
68719476753,18,The Harvest Room,77517,US,Incline Village,9qfx,-119.936,39.244
249108103236,69,Dragonfly Cafe,55897,GB,London,gcpv,-0.153,51.518
103079215171,68,Delish Cafe,4340,GB,London,gcpv,-0.15,51.51
197568495691,76,Happy Hour Cafe,24784,GB,London,gcpu,-0.229,51.493
231928233994,11,The Flaming Wok,33573,US,Medina,sqdz,15.294,37.851
77309411376,49,The Olive Tree,78190,FR,Paris,u09t,2.293,48.864
197568495704,89,The Silver Skillet,24784,NL,Amsterdam,u173,4.905,52.377
206158430246,39,Cinnamon Grill,53370,US,Chippewa Falls,9zzp,-91.4,44.914
51,52,The Red Door,47732,FR,Paris,u09w,2.33,48.87
154618822682,27,The Corner Cafe,41484,ES,Barcelona,sp3e,2.219,41.411
249108103175,8,The Green Olive,55897,US,Anaheim,9qh0,-117.915,33.802
257698037783,24,The Fisherman's Catch,26468,ES,Barcelona,sp3e,2.145,41.4
249108103188,21,The Lazy Daisy,55897,US,Oroville,9r18,-121.57,39.504
85899345959,40,Crimson Cafe,18952,IT,Milan,u0nd,9.155,45.49
206158430231,24,The Fisherman's Catch,53370,US,New York,dr5r,-73.986,40.758
240518168582,7,Cafe Roma,93164,US,Shreveport,9vv2,-93.862,32.45
197568495696,81,The Oak Room,24784,GB,London,gcpv,-0.028,51.507
25769803784,9,The Grill House,72230,US,Cleveland,dn78,-84.871,35.21
154618822736,81,The Oak Room,41484,NL,Amsterdam,u173,4.889,52.371
111669149713,18,The Harvest Room,84488,US,Takoma Park,dqcj,-77.01,38.975
65,66,City Bites,47732,GB,London,gcpv,-0.142,51.518
249108103227,60,Big City Grill,55897,FR,Paris,u09w,2.338,48.879
197568495670,55,The Steak House,24784,FR,Paris,u09t,2.343,48.849
60129542172,29,The Olive Branch,71555,ES,Barcelona,sp3e,2.175,41.385
240518168587,12,The Wooden Spoon,93164,US,Bryant,9ynh,-92.501,34.621
94489280543,32,The Orange Peeler,95399,US,Glenview,dp3x,-87.821,42.104
163208757249,2,Bella Cucina,96638,US,Key West,dhmg,-81.801,24.557
94489280521,10,The Golden Spoon,95399,US,Sikeston,dn83,-89.54,36.891
59,60,Big City Grill,47732,GB,London,gcpu,-0.193,51.5
266287972394,43,The Food House,11263,AT,Vienna,u2ed,16.366,48.203
120259084343,56,The Waffle House,59829,GB,London,gcpv,-0.152,51.506
154618822674,19,The Tasting Room,41484,US,Lees Summit,9yuv,-94.357,38.903
128849018909,30,The Wine Cellar,5679,US,West Yarmouth,drqh,-70.262,41.657
180388626488,57,The Yellow Submarine,7531,GB,London,gcpu,-0.156,51.499
3,4,The Blue Plate,47732,US,Carthage,9vsy,-94.324,32.148
111669149731,36,Blue Ocean Grill,84488,US,Iron Mountain,f01k,-88.05,45.842
85899345965,46,The Italian Table,18952,FR,Paris,u09t,2.33,48.84
17179869208,25,The Cozy Cafe,10902,ES,Barcelona,sp3e,2.152,41.377
34359738402,35,Basilica Bistro,50333,AT,Vienna,u2ed,16.373,48.201
103079215141,38,Cafe Viva,4340,US,Rockford,dp88,-88.967,42.274
111669149747,52,The Red Door,84488,FR,Paris,u09w,2.345,48.887
206158430282,75,Greenhouse Cafe,53370,GB,London,gcpu,-0.113,51.498
25769803776,1,Savoria,72230,US,Kihei,8e8w,-156.458,20.763
68719476777,42,The Daily Scoop,77517,FR,Paris,u09t,2.34,48.832
17,18,The Harvest Room,47732,US,Park City,9x0x,-111.506,40.651
146028888092,29,The Olive Branch,70611,US,Grinnell,9zqj,-92.727,41.757
240518168600,25,The Cozy Cafe,93164,US,Tannersville,dr63,-75.354,41.053
163208757265,18,The Harvest Room,96638,US,College Park,dqcm,-76.932,38.996
197568495667,52,The Red Door,24784,FR,Paris,u09t,2.373,48.844
163208757293,46,The Italian Table,96638,US,Devils Lake,cb99,-98.848,48.101
42949672961,2,Bella Cucina,89646,US,San Diego,9mud,-117.21,32.725
249108103238,71,Fire and Spice,55897,GB,London,gcpv,-0.102,51.52
34359738389,22,The Red Pepper,50333,US,Lead,9xyh,-103.84,44.335
163208757253,6,The Daily Grind,96638,US,Carlsbad,9mus,-117.344,33.164
128849018923,44,The French Kitchen,5679,AT,Vienna,u2ed,16.357,48.19
240518168612,37,Cafe Crepe,93164,US,Fall River,drmm,-71.184,41.682
146028888112,49,The Olive Tree,70611,US,Stevenson,c217,-121.883,45.692
111669149706,11,The Flaming Wok,84488,US,Southern Pines,dnr8,-79.392,35.197
249108103206,39,Cinnamon Grill,55897,US,Williams Bay,dp94,-88.556,42.575
42949673019,60,Big City Grill,89646,FR,Paris,u09w,2.349,48.878
240518168648,73,Fresh Harvest,93164,GB,London,u10j,0.011,51.603
171798691842,3,Spice Bazaar,65939,US,New Orleans,9vrf,-90.059,29.963
25769803843,68,Delish Cafe,72230,NL,Amsterdam,u173,4.916,52.361
8589934613,22,The Red Pepper,12630,US,Redding,9r0y,-122.394,40.59
231928234006,23,The Hungry Pig,33573,US,Maumee,dpks,-83.667,41.588
128849018914,35,Basilica Bistro,5679,US,Spearfish,9xyj,-103.815,44.479
197568495648,33,The Blue Elephant,24784,ES,Barcelona,sp3e,2.212,41.408
128849018929,50,The Pancake House,5679,FR,Paris,u09t,2.343,48.848
77309411330,3,Spice Bazaar,78190,US,Titusville,djnd,-80.854,28.552
206158430285,78,The Hot Spot,53370,GB,London,gcpv,-0.15,51.504
240518168640,65,Chef's Corner,93164,FR,Paris,u09w,2.345,48.879
128849018926,47,The Juicy Burger,5679,FR,Paris,u09t,2.33,48.835
197568495688,73,Fresh Harvest,24784,GB,London,gcpu,-0.191,51.482
111669149741,46,The Italian Table,84488,FR,Paris,u09t,2.304,48.865
77309411347,20,The Brasserie,78190,US,Pioneer,9qfe,-120.116,38.671
120259084339,52,The Red Door,59829,GB,London,gcpu,-0.186,51.501
231928234011,28,The Spicy Pickle,33573,IT,Milan,u0nd,9.187,45.456
137438953527,56,The Waffle House,11038,GB,London,gcpv,-0.158,51.516
231928234007,24,The Fisherman's Catch,33573,US,Canyonville,9r8k,-123.29,42.941
171798691887,48,The Local Cafe,65939,FR,Paris,u09t,2.327,48.866
146028888098,35,Basilica Bistro,70611,US,Lake Elmo,spz6,10.196,43.957
42949672963,4,The Blue Plate,89646,US,Atlanta,dn5b,-84.467,33.897
85899345975,56,The Waffle House,18952,GB,London,gcpu,-0.182,51.494
266287972374,23,The Hungry Pig,11263,ES,Barcelona,sp3e,2.175,41.386
163208757248,1,Savoria,96638,US,Volcano,8e3w,-155.237,19.427
25769803830,55,The Steak House,72230,FR,Paris,u09w,2.324,48.871
180388626472,41,The Daily Bread,7531,AT,Vienna,u2ed,16.382,48.218
266287972433,82,The Palate,11263,NL,Amsterdam Zuidoost,u179,4.939,52.314
137438953478,7,Cafe Roma,11038,US,Knoxville,dnkk,-83.969,36.014
68719476752,17,The Rustic Table,77517,US,Aspen,9wun,-106.817,39.186
249108103233,66,City Bites,55897,GB,London,gcpv,-0.119,51.512
103079215129,26,The Silver Spoon,4340,US,Absecon,dr50,-74.53,39.447
197568495634,19,The Tasting Room,24784,US,Beach Haven,dr50,-74.249,39.55
240518168583,8,The Green Olive,93164,US,San Diego,9mud,-117.15,32.766
103079215173,70,Earth and Vine,4340,GB,London,gcpv,-0.078,51.511
128849018950,71,Fire and Spice,5679,GB,Paddington,gcpv,-0.176,51.512
214748364853,54,The Spice House,92040,FR,Paris,u09t,2.33,48.859
188978561084,61,Blue Water Bistro,3642,FR,Paris,u09w,2.302,48.869
137438953517,46,The Italian Table,11038,FR,Paris,u09w,2.343,48.873
197568495699,84,The Pink Door,24784,GB,Paddington,gcpv,-0.176,51.516
197568495663,48,The Local Cafe,24784,AT,Vienna,u2ed,16.375,48.202
266287972359,8,The Green Olive,11263,US,Memphis,dn20,-89.809,35.205
103079215109,6,The Daily Grind,4340,US,Gatesville,9vdd,-97.715,31.434
68719476800,65,Chef's Corner,77517,NL,Amsterdam,u176,4.903,52.384
214748364838,39,Cinnamon Grill,92040,US,Cozad,u05k,4.765,45.787
94489280529,18,The Harvest Room,95399,US,Bloomingdale,dpnt,-80.85,40.363
197568495646,31,Bistro 42,24784,ES,Barcelona,sp3e,2.158,41.398
197568495622,7,Cafe Roma,24784,US,Signal Hill,9q5b,-118.155,33.79
111669149762,67,Crimson and Clover,84488,NL,Amsterdam,u176,4.894,52.4
94489280549,38,Cafe Viva,95399,US,Jackman,f2n5,-70.284,45.68
171798691871,32,The Orange Peeler,65939,IT,Milan,u0nd,9.201,45.49
103079215169,66,City Bites,4340,GB,London,gcpv,-0.102,51.506
154618822676,21,The Lazy Daisy,41484,ES,Barcelona,sp3e,2.149,41.375
206158430218,11,The Flaming Wok,53370,US,Winston Salem,dnqv,-80.299,36.079
94489280515,4,The Blue Plate,95399,US,Tyler,9vsr,-95.265,32.323
8589934635,44,The French Kitchen,12630,FR,Paris,u09t,2.288,48.866
42949672968,9,The Grill House,89646,US,Moore,9y69,-97.495,35.352
42949672979,20,The Brasserie,89646,ES,Barcelona,sp3e,2.154,41.38
77309411362,35,Basilica Bistro,78190,IT,Milan,u0nd,9.164,45.486
171798691864,25,The Cozy Cafe,65939,US,Rapid City,9xyd,-103.305,44.018
266287972419,68,Delish Cafe,11263,GB,London,gcpu,-0.168,51.492
146028888080,17,The Rustic Table,70611,US,Springfield,9yte,-93.228,37.209
77309411344,17,The Rustic Table,78190,US,Corbin,dns4,-84.128,36.92
266287972386,35,Basilica Bistro,11263,US,Ennis,c809,-111.725,45.349
223338299450,59,Azalea Cafe,36937,NL,Amsterdam,u173,4.844,52.368
25769803822,47,The Juicy Burger,72230,AT,Vienna,u2ed,16.377,48.192
8589934593,2,Bella Cucina,12630,US,San Diego,9mud,-117.252,32.776
42949673009,50,The Pancake House,89646,AT,Vienna,u2ed,16.299,48.251
17179869238,55,The Steak House,10902,FR,Paris,u09t,2.344,48.853
240518168579,4,The Blue Plate,93164,US,Baton Rouge,9vrj,-91.06,30.429
77309411386,59,Azalea Cafe,78190,GB,London,gcpu,-0.195,51.495
257698037786,27,The Corner Cafe,26468,US,Galena,9zx9,-90.449,42.437
231928234023,40,Crimson Cafe,33573,US,Winthrop,c2de,-120.177,48.47
17179869220,37,Cafe Crepe,10902,IT,Milan,u0nd,9.189,45.461
206158430233,26,The Silver Spoon,53370,ES,Barcelona,sp3e,2.173,41.38
266287972418,67,Crimson and Clover,11263,GB,London,gcpu,-0.172,51.491
180388626443,12,The Wooden Spoon,7531,US,Ramey,sw8z,23.775,37.812
17179869186,3,Spice Bazaar,10902,US,Hattiesburg,dj86,-89.35,31.329
94489280533,22,The Red Pepper,95399,US,Hauppauge,dr7b,-73.265,40.806
128849018891,12,The Wooden Spoon,5679,US,Saint Mary,dn8p,-89.954,37.883
120259084317,30,The Wine Cellar,59829,IT,Milan,u0nd,9.19,45.466
120259084299,12,The Wooden Spoon,59829,US,Sweetwater,dn7f,-84.511,35.598
34359738378,11,The Flaming Wok,50333,US,Rohnert Park,9qbd,-122.714,38.346
171798691863,24,The Fisherman's Catch,65939,US,Austin,9zvb,-92.984,43.682
180388626441,10,The Golden Spoon,7531,US,Protection,9y97,-99.484,37.202
94489280555,44,The French Kitchen,95399,FR,Paris,u09w,2.304,48.868
32,33,The Blue Elephant,47732,US,Idaho Falls,9x8r,-112.052,43.495
266287972427,76,Happy Hour Cafe,11263,GB,London,gcpv,-0.151,51.517
85899345971,52,The Red Door,18952,FR,Paris,u09w,2.339,48.871
257698037824,65,Chef's Corner,26468,GB,London,gcpv,-0.1,51.505
188978561093,70,Earth and Vine,3642,GB,London,gcpu,-0.158,51.502
163208757288,41,The Daily Bread,96638,US,Guernsey,u240,14.15,45.079
249108103240,73,Fresh Harvest,55897,GB,London,gcpt,-0.37,51.54
266287972392,41,The Daily Bread,11263,AT,Vienna,u2ed,16.378,48.188
163208757281,34,The Tasty Treat,96638,US,Cambridge,drt3,-71.11,42.375
231928234041,58,A Tasty Bite,33573,NL,Amsterdam,u173,4.87,52.361
77309411395,68,Delish Cafe,78190,NL,Amsterdam,u173,4.913,52.355
188978561101,78,The Hot Spot,3642,GB,London,gcpv,-0.204,51.563
188978561060,37,Cafe Crepe,3642,US,Bay City,dpu2,-83.934,43.625
94489280513,2,Bella Cucina,95399,US,San Antonio,9v1z,-98.584,29.488
120259084302,15,The Pearl Kitchen,59829,US,Lexington,dngb,-84.497,38.074
146028888064,1,Savoria,70611,US,Curitiba,6gkz,-49.281,-25.437
94489280525,14,The Gourmet Garden,95399,US,Newton,9yfb,-97.32,38.043
197568495678,63,Cafe Paris,24784,FR,Paris,u09w,2.303,48.868
188978561034,11,The Flaming Wok,3642,US,Upland,9qh3,-117.672,34.089
154618822723,68,Delish Cafe,41484,GB,London,gcpu,-0.188,51.503
206158430237,30,The Wine Cellar,53370,ES,Barcelona,sp3e,2.202,41.399
249108103193,26,The Silver Spoon,55897,US,Gretna,9z79,-96.253,41.097
146028888070,7,Cafe Roma,70611,US,Montgomery,djf8,-86.217,32.36
111669149743,48,The Local Cafe,84488,FR,Paris,u09t,2.326,48.867
171798691840,1,Savoria,65939,US,Fort Myers,dhtz,-81.796,26.684
180388626458,27,The Corner Cafe,7531,US,Humeston,spzc,11.246,43.775
206158430234,27,The Corner Cafe,53370,ES,Barcelona,sp3e,2.181,41.382
120259084313,26,The Silver Spoon,59829,IT,Milan,u0nd,9.192,45.451
68719476751,16,The Spice Tree,77517,US,Shepherdsville,dng0,-85.698,38.066
180388626468,37,Cafe Crepe,7531,IT,Milan,u0nd,9.246,45.505
214748364869,70,Earth and Vine,92040,GB,London,gcpv,-0.033,51.504
77309411378,51,The Pizzeria,78190,FR,Paris,u09t,2.345,48.866
180388626434,3,Spice Bazaar,7531,US,Fort Walton Beach,dj6k,-86.613,30.404
25769803828,53,The Red Rooster,72230,FR,Paris,u09t,2.304,48.867
60129542152,9,The Grill House,71555,US,Dillon,dnpe,-79.37,34.436
77309411389,62,Cafe Luminoso,78190,GB,London,gcpv,-0.121,51.511
25769803791,16,The Spice Tree,72230,US,New York,dr5r,-73.992,40.745
68719476796,61,Blue Water Bistro,77517,GB,London,gcpv,-0.159,51.519
94489280514,3,Spice Bazaar,95399,US,Tucson,9t9p,-110.909,32.224
16,17,The Rustic Table,47732,US,Altoona,dr0q,-78.395,40.495
34359738415,48,The Local Cafe,50333,FR,Paris,u09t,2.347,48.861
197568495650,35,Basilica Bistro,24784,US,Northwood,drtq,-71.243,43.262
85899345955,36,Blue Ocean Grill,18952,IT,Milan,u0nd,9.191,45.458
77309411369,42,The Daily Scoop,78190,FR,Boulogne Billancourt,u09t,2.253,48.845
163208757271,24,The Fisherman's Catch,96638,US,Emlenton,dpr6,-79.703,41.178
257698037780,21,The Lazy Daisy,26468,ES,Barcelona,sp3e,2.171,41.375
197568495616,1,Savoria,24784,US,New York,d7q3,-69.91,18.458
20,21,The Lazy Daisy,47732,ES,Barcelona,sp3e,2.178,41.383
214748364827,28,The Spicy Pickle,92040,US,Moorcroft,9xv7,-104.951,44.264
60129542188,45,The Green Bean,71555,FR,Paris,u09t,2.338,48.852
77309411368,41,The Daily Bread,78190,FR,Paris,u09t,2.329,48.818
240518168590,15,The Pearl Kitchen,93164,US,Fort Smith,9ykc,-94.349,35.348
206158430235,28,The Spicy Pickle,53370,ES,Barcelona,sp3e,2.161,41.384
60129542176,33,The Blue Elephant,71555,US,Toledo,dpks,-83.665,41.649
137438953499,28,The Spicy Pickle,11038,IT,Milan,u0nd,9.193,45.47
77309411359,32,The Orange Peeler,78190,IT,Milan,u0nd,9.21,45.463
206158430272,65,Chef's Corner,53370,FR,Paris,u09w,2.354,48.868
214748364868,69,Dragonfly Cafe,92040,GB,London,gcpu,-0.209,51.499
171798691844,5,The Hungry Hippo,65939,US,Jackson,dn2f,-88.857,35.662
188978561053,30,The Wine Cellar,3642,ES,Barcelona,sp3e,2.162,41.394
231928234026,43,The Food House,33573,FR,Paris,u09t,2.308,48.854
146028888144,81,The Oak Room,70611,GB,London,gcpv,-0.118,51.516
103079215126,23,The Hungry Pig,4340,US,Somerset,dnef,-84.618,37.072
85899345957,38,Cafe Viva,18952,IT,Milan,u0nd,9.207,45.485
120259084290,3,Spice Bazaar,59829,US,Palm Harbor,dhvp,-82.74,28.107
34359738394,27,The Corner Cafe,50333,IT,Milan,u0nd,9.184,45.467
197568495689,74,Garden of Eatin',24784,GB,London,gcpu,-0.121,51.489
68719476789,54,The Spice House,77517,GB,Paddington,gcpv,-0.178,51.513
77309411333,6,The Daily Grind,78190,US,Savannah,djwq,-81.149,32.103
111669149749,54,The Spice House,84488,GB,London,gcpu,-0.146,51.49
51539607552,1,Savoria,6934,US,Whigham,9fcp,-99.827,16.792
154618822679,24,The Fisherman's Catch,41484,ES,Barcelona,sp3e,2.178,41.384
266287972431,80,The Market Cafe,11263,GB,London,gcpv,-0.07,51.546
223338299412,21,The Lazy Daisy,36937,ES,Barcelona,sp3e,2.184,41.387
163208757317,70,Earth and Vine,96638,GB,Paddington,gcpv,-0.171,51.52
25769803777,2,Bella Cucina,72230,US,Fort Lauderdale,dhwu,-80.331,26.124
231928234014,31,Bistro 42,33573,IT,Milan,u0nd,9.167,45.484
51539607604,53,The Red Rooster,6934,GB,London,gcpv,-0.15,51.505
214748364802,3,Spice Bazaar,92040,US,Waco,9vdg,-97.146,31.502
17179869240,57,The Yellow Submarine,10902,FR,Paris,u09t,2.308,48.855
128849018915,36,Blue Ocean Grill,5679,US,Belle Fourche,9xyn,-103.854,44.663
206158430256,49,The Olive Tree,53370,US,Seattle,c22y,-122.355,47.623
231928234010,27,The Corner Cafe,33573,US,Dixfield,drvv,-70.457,44.531
111669149698,3,Spice Bazaar,84488,US,Monahans,9twg,-102.902,31.592
249108103208,41,The Daily Bread,55897,US,Greenbush,dpuv,-83.315,44.53
25769803838,63,Cafe Paris,72230,GB,London,gcpv,-0.161,51.515
94489280524,13,The Firehouse,95399,US,Groveland,9qdz,-119.881,37.812
240518168584,9,The Grill House,93164,US,Dallas,9vg4,-96.848,32.809
60129542150,7,Cafe Roma,71555,US,Little River,dq00,-78.617,33.875
257698037794,35,Basilica Bistro,26468,IT,Milan,u0nd,9.174,45.51
68719476749,14,The Gourmet Garden,77517,US,Salem,dnx5,-80.032,37.265
240518168622,47,The Juicy Burger,93164,IT,Milan,u0nd,9.184,45.463
51539607601,50,The Pancake House,6934,FR,Paris,u09w,2.3,48.874
206158430276,69,Dragonfly Cafe,53370,FR,Paris,u09w,2.313,48.882
13,14,The Gourmet Garden,47732,US,Champaign,dp1h,-88.244,40.131
34359738396,29,The Olive Branch,50333,IT,Milan,u0nd,9.157,45.471
53,54,The Spice House,47732,FR,Paris,u09w,2.349,48.873
188978561028,5,The Hungry Hippo,3642,US,Enterprise,djdf,-85.836,31.327
231928234015,32,The Orange Peeler,33573,IT,Milan,u0nd,9.227,45.516
206158430279,72,Flamingo Cafe,53370,GB,London,gcpu,-0.127,51.493
120259084300,13,The Firehouse,59829,US,Branson,9yt8,-93.272,36.633
17179869184,1,Savoria,10902,US,Arvada,qw3y,115.164,-8.7
206158430236,29,The Olive Branch,53370,ES,Barcelona,sp3e,2.162,41.396
180388626455,24,The Fisherman's Catch,7531,US,Hobart,dr8h,-78.742,42.99
214748364810,11,The Flaming Wok,92040,US,Jellico,dns0,-84.127,36.588
214748364818,19,The Tasting Room,92040,US,Bowlinggreen,dpke,-83.608,41.374
137438953473,2,Bella Cucina,11038,US,Grand Prairie,9vff,-97.06,32.784
103079215157,54,The Spice House,4340,FR,Paris,u09t,2.283,48.847
146028888148,85,The Plum Cafe,70611,NL,Amsterdam,u173,4.861,52.37
266287972432,81,The Oak Room,11263,GB,London,gcpv,-0.055,51.546
249108103209,42,The Daily Scoop,55897,US,Tigerton,dpbw,-89.066,44.75
60129542206,63,Cafe Paris,71555,GB,London,gcpv,-0.158,51.52
266287972410,59,Azalea Cafe,11263,FR,Paris,u09w,2.297,48.872
257698037817,58,A Tasty Bite,26468,FR,Paris,u09w,2.343,48.871
85899345933,14,The Gourmet Garden,18952,US,Rohnert Park,9qbd,-122.715,38.364
8589934639,48,The Local Cafe,12630,FR,Paris,u09w,2.326,48.875
146028888146,83,The Pantry,70611,NL,Amsterdam,u173,4.889,52.335
266287972407,56,The Waffle House,11263,FR,Paris,u09w,2.298,48.871
77309411379,52,The Red Door,78190,FR,Paris,u09w,2.321,48.868
154618822705,50,The Pancake House,41484,AT,Vienna,u2ed,16.374,48.211
154618822715,60,Big City Grill,41484,FR,Paris,u09w,2.322,48.874
249108103237,70,Earth and Vine,55897,GB,London,gcpv,-0.135,51.519
197568495620,5,The Hungry Hippo,24784,US,Mobile,dj3q,-88.041,30.688
85899345974,55,The Steak House,18952,GB,London,gcpu,-0.188,51.494
17179869190,7,Cafe Roma,10902,US,Duluth,dnh1,-84.125,33.951
137438953528,57,The Yellow Submarine,11038,GB,London,gcpv,-0.132,51.527
180388626502,71,Fire and Spice,7531,NL,Amsterdam,u173,4.868,52.368
128849018933,54,The Spice House,5679,FR,Paris,u09t,2.326,48.866
42949673014,55,The Steak House,89646,FR,Paris,u09w,2.303,48.872
120259084323,36,Blue Ocean Grill,59829,FR,Paris,u09t,2.354,48.832
128849018953,74,Garden of Eatin',5679,GB,London,gcpv,-0.185,51.524
214748364865,66,City Bites,92040,GB,London,gcpu,-0.138,51.49
137438953530,59,Azalea Cafe,11038,NL,Amsterdam,u173,4.818,52.338
257698037764,5,The Hungry Hippo,26468,US,New Orleans,9vrf,-90.071,29.952
188978561030,7,Cafe Roma,3642,US,Jacksonville,9vsm,-95.255,31.965
171798691881,42,The Daily Scoop,65939,FR,Paris,u09t,2.324,48.846
103079215167,64,Chateau de Cuisine,4340,GB,London,gcpv,-0.126,51.505
128849018920,41,The Daily Bread,5679,IT,Milan,u0nd,9.222,45.502
163208757318,71,Fire and Spice,96638,GB,London,gcpv,-0.153,51.522
249108103182,15,The Pearl Kitchen,55897,US,Marina,9q92,-121.806,36.699
266287972370,19,The Tasting Room,11263,US,Percival,9z5z,-95.789,40.69
214748364809,10,The Golden Spoon,92040,US,El Reno,9y63,-97.973,35.505
180388626460,29,The Olive Branch,7531,US,Gaylord,9zuv,-94.224,44.556
180388626464,33,The Blue Elephant,7531,IT,Milan,u0nd,9.203,45.478
163208757267,20,The Brasserie,96638,US,Bellmawr,dr4d,-75.078,39.864
103079215133,30,The Wine Cellar,4340,US,Drums,dr3c,-75.953,41.033
171798691869,30,The Wine Cellar,65939,IT,Milan,u0nd,9.195,45.469
197568495695,80,The Market Cafe,24784,GB,London,gcpv,-0.099,51.505
29,30,The Wine Cellar,47732,US,Canyonville,9r8k,-123.291,42.944
128849018932,53,The Red Rooster,5679,FR,Paris,u09t,2.28,48.858
197568495661,46,The Italian Table,24784,AT,Vienna,u2ed,16.384,48.195
137438953483,12,The Wooden Spoon,11038,US,Denver,9xj7,-104.993,39.915
17179869201,18,The Harvest Room,10902,US,Rehoboth Beach,dqfs,-75.082,38.717
103079215122,19,The Tasting Room,4340,US,Emporia,dq8b,-77.56,36.707
128849018912,33,The Blue Elephant,5679,US,Camden,dryg,-69.075,44.202
163208757251,4,The Blue Plate,96638,US,Vicksburg,9vxr,-90.899,32.314
51539607595,44,The French Kitchen,6934,FR,Paris,u09t,2.338,48.863
94489280570,59,Azalea Cafe,95399,GB,London,gcpv,-0.122,51.52
68719476739,4,The Blue Plate,77517,US,Junction,9v3j,-99.778,30.494
94489280553,42,The Daily Scoop,95399,FR,Paris,u09t,2.283,48.866
146028888093,30,The Wine Cellar,70611,US,Albany,dred,-73.815,42.687
146028888141,78,The Hot Spot,70611,GB,London,gcpu,-0.152,51.503
68719476794,59,Azalea Cafe,77517,GB,London,gcpv,-0.18,51.516
206158430217,10,The Golden Spoon,53370,US,Barstow,9qhy,-117.003,34.891
214748364829,30,The Wine Cellar,92040,US,Eau Claire,9zyz,-91.596,44.844
231928233997,14,The Gourmet Garden,33573,US,Stirling City,9r1e,-121.527,39.904
206158430228,21,The Lazy Daisy,53370,US,Exton,dr4j,-75.626,40.362
231928234037,54,The Spice House,33573,GB,London,gcpv,-0.07,51.517
154618822690,35,Basilica Bistro,41484,US,Clare,dpg9,-84.788,43.83
77309411374,47,The Juicy Burger,78190,FR,Paris,u09t,2.353,48.858
180388626481,50,The Pancake House,7531,FR,Paris,u09w,2.33,48.871
231928234003,20,The Brasserie,33573,ES,Barcelona,sp3e,2.129,41.405
188978561037,14,The Gourmet Garden,3642,US,Chattanooga,dn5r,-85.208,34.991
163208757286,39,Cinnamon Grill,96638,US,Spearfish,9xyj,-103.814,44.48
223338299426,35,Basilica Bistro,36937,US,Jamestown,cb3f,-98.715,46.882
188978561033,10,The Golden Spoon,3642,US,Hope,9vvr,-93.612,33.684
163208757323,76,Happy Hour Cafe,96638,NL,Amsterdam,u173,4.894,52.371
60129542170,27,The Corner Cafe,71555,ES,Barcelona,sp3e,2.184,41.382
257698037811,52,The Red Door,26468,FR,Paris,u09t,2.341,48.864
146028888127,64,Chateau de Cuisine,70611,FR,Paris,u09t,2.379,48.861
68719476773,38,Cafe Viva,77517,US,Kalispell,c2wd,-114.305,48.182
111669149697,2,Bella Cucina,84488,US,Orlando,djn1,-81.405,28.407
8589934607,16,The Spice Tree,12630,US,Burlington,9wzr,-102.278,39.299
60129542197,54,The Spice House,71555,FR,Paris,u09w,2.359,48.876
60129542180,37,Cafe Crepe,71555,AT,Vienna,u2ed,16.369,48.205
214748364855,56,The Waffle House,92040,FR,Paris,u09t,2.329,48.865
42949673017,58,A Tasty Bite,89646,FR,Paris,u09w,2.3,48.876
111669149703,8,The Green Olive,84488,US,Birmingham,djfq,-86.809,33.52
206158430271,64,Chateau de Cuisine,53370,FR,Paris,u09t,2.366,48.864
25769803797,22,The Red Pepper,72230,ES,Barcelona,sp3e,2.162,41.392
111669149728,33,The Blue Elephant,84488,US,Brockton,drmr,-71.058,42.064
154618822683,28,The Spicy Pickle,41484,US,Narragansett,drm5,-71.462,41.432
85899345984,65,Chef's Corner,18952,GB,London,gcpv,-0.002,51.537
249108103185,18,The Harvest Room,55897,US,San Francisco,9q8y,-122.401,37.792
34359738440,73,Fresh Harvest,50333,NL,Amsterdam,u173,4.866,52.354
206158430265,58,A Tasty Bite,53370,FR,Paris,u09t,2.316,48.844
249108103215,48,The Local Cafe,55897,IT,Milan,u0n6,9.119,45.514
103079215170,67,Crimson and Clover,4340,GB,London,gcpv,-0.188,51.51
51539607606,55,The Steak House,6934,GB,London,gcpv,-0.187,51.513
94489280551,40,Crimson Cafe,95399,FR,Paris,u09t,2.306,48.838
146028888142,79,The Huckleberry Cafe,70611,GB,London,gcpv,-0.129,51.507
8589934651,60,Big City Grill,12630,GB,London,gcpu,-0.158,51.497
25769803816,41,The Daily Bread,72230,IT,Milan,u0nd,9.192,45.466
163208757297,50,The Pancake House,96638,AT,Vienna,u2ed,16.421,48.234
266287972376,25,The Cozy Cafe,11263,ES,Barcelona,sp3e,2.164,41.394
188978561058,35,Basilica Bistro,3642,US,Madison,dp8m,-89.44,43.073
66,67,Crimson and Clover,47732,NL,Amsterdam,u173,4.876,52.35
146028888096,33,The Blue Elephant,70611,US,Decorah,9zww,-91.797,43.292
214748364873,74,Garden of Eatin',92040,GB,London,gcpv,-0.137,51.517
60129542199,56,The Waffle House,71555,GB,London,gcpu,-0.019,51.474
94489280559,48,The Local Cafe,95399,FR,Paris,u09w,2.336,48.873
188978561102,79,The Huckleberry Cafe,3642,GB,London,gcpv,-0.217,51.583
180388626440,9,The Grill House,7531,US,Max Meadows,dnw6,-80.944,36.941
128849018948,69,Dragonfly Cafe,5679,GB,London,gcpv,-0.144,51.508
51539607577,26,The Silver Spoon,6934,US,Archbald,dr6h,-75.592,41.494
171798691880,41,The Daily Bread,65939,FR,Paris,u09t,2.352,48.845
154618822669,14,The Gourmet Garden,41484,US,Franklin,dn6k,-86.823,35.911
111669149716,21,The Lazy Daisy,84488,US,Bloomington,dp0w,-88.977,40.46
231928234044,61,Blue Water Bistro,33573,US,Harleigh,u38k,11.754,54.153
180388626492,61,Blue Water Bistro,7531,GB,London,gcpv,-0.155,51.508
85899345922,3,Spice Bazaar,18952,US,West Palm Beach,dhxp,-80.073,26.691
103079215158,55,The Steak House,4340,FR,Paris,u09t,2.343,48.861
8589934638,47,The Juicy Burger,12630,FR,Paris,u09w,2.326,48.871
197568495658,43,The Food House,24784,US,Mohawk,f03j,-88.299,47.415
34359738409,42,The Daily Scoop,50333,FR,Paris,u09t,2.345,48.846
111669149708,13,The Firehouse,84488,US,Yellville,9yqj,-92.611,36.105
154618822712,57,The Yellow Submarine,41484,FR,Paris,u09t,2.311,48.861
206158430241,34,The Tasty Treat,53370,US,Hampton,drts,-70.813,42.91
42949672980,21,The Lazy Daisy,89646,ES,Barcelona,sp3e,2.151,41.384
154618822708,53,The Red Rooster,41484,FR,Paris,u09t,2.33,48.853
43,44,The French Kitchen,47732,AT,Vienna,u2ed,16.355,48.192
214748364845,46,The Italian Table,92040,FR,Paris 06,u09t,2.321,48.845
197568495644,29,The Olive Branch,24784,ES,Barcelona,sp3e,2.159,41.391
34359738383,16,The Spice Tree,50333,ES,Barcelona,sp3e,2.181,41.38
77309411341,14,The Gourmet Garden,78190,US,Bull Shoals,9yqn,-92.591,36.382
171798691846,7,Cafe Roma,65939,US,Rocky Mount,dq2s,-77.847,35.979
8589934632,41,The Daily Bread,12630,FR,Paris,u09t,2.326,48.847
231928234038,55,The Steak House,33573,NL,Amsterdam,u173,4.877,52.331
266287972425,74,Garden of Eatin',11263,GB,London,u10j,0.039,51.507
214748364875,76,Happy Hour Cafe,92040,GB,London,gcpv,-0.079,51.524
266287972398,47,The Juicy Burger,11263,FR,Paris,u09t,2.284,48.83
171798691877,38,Cafe Viva,65939,AT,Vienna,u2ed,16.367,48.197
206158430277,70,Earth and Vine,53370,US,Raymond,u1hc,6.961,50.94
188978561057,34,The Tasty Treat,3642,US,Fitchburg,drsf,-71.853,42.546
171798691892,53,The Red Rooster,65939,US,Northbrook,u0yj,8.761,50.107
34359738443,76,Happy Hour Cafe,50333,NL,Amsterdam,u173,4.884,52.365
249108103196,29,The Olive Branch,55897,ES,Barcelona,sp3e,2.172,41.383
128849018942,63,Cafe Paris,5679,GB,London,gcpu,-0.014,51.478
25769803827,52,The Red Door,72230,FR,Paris,u09t,2.327,48.857
8589934659,68,Delish Cafe,12630,NL,Amsterdam,u173,4.888,52.334
60129542211,68,Delish Cafe,71555,NL,Amsterdam,u173,4.831,52.347
85899345923,4,The Blue Plate,18952,US,Bisbee,9t9f,-109.913,31.443
60129542175,32,The Orange Peeler,71555,ES,Barcelona,sp3e,2.112,41.394
240518168578,3,Spice Bazaar,93164,US,Houston,9vk1,-95.36,29.751
197568495660,45,The Green Bean,24784,AT,Vienna,u2ed,16.332,48.183
8589934628,37,Cafe Crepe,12630,US,Yakima,c263,-120.512,46.614
103079215150,47,The Juicy Burger,4340,IT,Milan,u0nd,9.202,45.488
128849018904,25,The Cozy Cafe,5679,ES,Barcelona,sp3e,2.177,41.392
266287972358,7,Cafe Roma,11263,US,Birmingham,djfq,-86.715,33.529
171798691874,35,Basilica Bistro,65939,US,Port Angeles,c281,-123.439,48.11
25769803799,24,The Fisherman's Catch,72230,ES,Barcelona,sp3e,2.165,41.394
25769803821,46,The Italian Table,72230,US,Sumner,c23h,-122.223,47.202
51539607583,32,The Orange Peeler,6934,IT,Milan,u0nd,9.2,45.478
137438953529,58,A Tasty Bite,11038,GB,Woodford Green,u10j,0.059,51.607
25769803818,43,The Food House,72230,IT,Milan,u0nd,9.196,45.474
128849018903,24,The Fisherman's Catch,5679,ES,Barcelona,sp3e,2.168,41.391
146028888131,68,Delish Cafe,70611,FR,Paris,u09w,2.302,48.873
120259084344,57,The Yellow Submarine,59829,GB,London,gcpv,-0.14,51.506
25769803807,32,The Orange Peeler,72230,US,Southfield,dpsc,-83.242,42.472
163208757295,48,The Local Cafe,96638,AT,Vienna,u2ed,16.345,48.167
128849018931,52,The Red Door,5679,FR,Paris,u09t,2.356,48.852
60129542178,35,Basilica Bistro,71555,IT,Milan,u0n6,9.116,45.444
146028888111,48,The Local Cafe,70611,IT,Milan,u0nd,9.19,45.498
17179869230,47,The Juicy Burger,10902,AT,Vienna,u2ed,16.372,48.207
17179869247,64,Chateau de Cuisine,10902,FR,Paris,u09w,2.306,48.875
68719476772,37,Cafe Crepe,77517,AT,Vienna,u2ed,16.363,48.179
111669149723,28,The Spicy Pickle,84488,ES,Barcelona,sp3e,2.173,41.391
120259084292,5,The Hungry Hippo,59829,US,Houston,9vk1,-95.46,29.768
103079215146,43,The Food House,4340,US,Pembroke,dxbp,-67.169,44.956
111669149736,41,The Daily Bread,84488,FR,Paris,u09t,2.319,48.838
197568495626,11,The Flaming Wok,24784,US,Albuquerque,9wk0,-106.585,35.159
231928234017,34,The Tasty Treat,33573,US,Seattle,c23p,-122.314,47.661
77309411363,36,Blue Ocean Grill,78190,US,Forest Grove,c206,-123.078,45.521
266287972404,53,The Red Rooster,11263,FR,Paris,u09t,2.301,48.861
214748364834,35,Basilica Bistro,92040,IT,Milan,u0nd,9.181,45.462
8589934653,62,Cafe Luminoso,12630,GB,London,gcpv,-0.226,51.505
5,6,The Daily Grind,47732,US,Columbus,djcn,-88.426,33.514
240518168647,72,Flamingo Cafe,93164,GB,London,gcpv,-0.285,51.559
85899345963,44,The French Kitchen,18952,AT,Vienna,u2ed,16.36,48.216
180388626466,35,Basilica Bistro,7531,IT,Milan,u0nd,9.143,45.5
25769803823,48,The Local Cafe,72230,AT,Vienna,u2ed,16.378,48.206
77309411372,45,The Green Bean,78190,FR,Paris,u09t,2.374,48.852
19,20,The Brasserie,47732,ES,Barcelona,sp3e,2.176,41.378
249108103221,54,The Spice House,55897,FR,Paris,u09t,2.315,48.838
231928234008,25,The Cozy Cafe,33573,US,Effingham,drv2,-71.115,43.741
68719476757,22,The Red Pepper,77517,ES,Barcelona,sp3e,2.147,41.434
163208757280,33,The Blue Elephant,96638,ES,Barcelona,sp3e,2.144,41.399
188978561039,16,The Spice Tree,3642,US,Gallup,9w69,-108.728,35.5
120259084321,34,The Tasty Treat,59829,AT,Vienna,u2ed,16.341,48.197
266287972416,65,Chef's Corner,11263,FR,Paris,u09w,2.298,48.883
42949672992,33,The Blue Elephant,89646,US,Albert Lea,9zv8,-93.369,43.65
163208757261,14,The Gourmet Garden,96638,US,Ruther Glen,dq8z,-77.476,37.933
103079215108,5,The Hungry Hippo,4340,US,Gulfport,dj2t,-89.093,30.425
163208757273,26,The Silver Spoon,96638,ES,Barcelona,sp3e,2.19,41.368
214748364830,31,Bistro 42,92040,US,Minneapolis,9zvx,-93.24,44.852
249108103190,23,The Hungry Pig,55897,US,Carnegie,dppj,-80.089,40.406
197568495637,22,The Red Pepper,24784,US,Indianapolis,dp4d,-86.265,39.888
154618822718,63,Cafe Paris,41484,GB,London,gcpu,-0.145,51.491
249108103226,59,Azalea Cafe,55897,FR,Paris,u09w,2.321,48.869
146028888138,75,Greenhouse Cafe,70611,GB,London,gcpu,-0.168,51.497
25769803788,13,The Firehouse,72230,US,East Saint Louis,9yzg,-90.175,38.629
214748364850,51,The Pizzeria,92040,FR,Paris,u09t,2.339,48.852
163208757294,47,The Juicy Burger,96638,AT,Vienna,u2e9,16.283,48.154
240518168602,27,The Corner Cafe,93164,ES,Barcelona,sp3e,2.143,41.38
154618822713,58,A Tasty Bite,41484,FR,Paris,u09w,2.345,48.872
249108103176,9,The Grill House,55897,US,Kiowa,9y5v,-95.9,34.719
2,3,Spice Bazaar,47732,US,Hammond,9vrt,-90.501,30.518
103079215130,27,The Corner Cafe,4340,US,Eagle,9xh1,-106.83,39.66
180388626435,4,The Blue Plate,7531,US,San Diego,9mud,-117.168,32.724
146028888105,42,The Daily Scoop,70611,IT,Milan,u0nd,9.177,45.46
180388626486,55,The Steak House,7531,GB,London,gcpu,-0.007,51.481
94489280518,7,Cafe Roma,95399,US,Madisonville,dnk1,-84.37,35.506
180388626482,51,The Pizzeria,7531,FR,Paris,u09w,2.32,48.874
103079215161,58,A Tasty Bite,4340,FR,Paris,u09w,2.328,48.872
128849018899,20,The Brasserie,5679,ES,Barcelona,sp3e,2.156,41.379
63,64,Chateau de Cuisine,47732,GB,London,gcpv,-0.157,51.514
94489280560,49,The Olive Tree,95399,FR,Paris,u09w,2.358,48.879
240518168581,6,The Daily Grind,93164,US,Tucson,9t9p,-110.977,32.314
111669149733,38,Cafe Viva,84488,AT,Vienna,u2ed,16.344,48.187
180388626475,44,The French Kitchen,7531,FR,Paris,u09t,2.349,48.852
206158430211,4,The Blue Plate,53370,US,Houston,9vk4,-95.362,29.94
146028888066,3,Spice Bazaar,70611,US,Weslaco,9udk,-97.959,26.172
103079215149,46,The Italian Table,4340,IT,Milan,u0nd,9.194,45.464
94489280567,56,The Waffle House,95399,GB,London,gcpv,-0.182,51.512
197568495685,70,Earth and Vine,24784,FR,Paris,u09w,2.32,48.88
214748364806,7,Cafe Roma,92040,US,Cypress,9qh0,-118.024,33.832
12,13,The Firehouse,47732,US,Athens,dnvx,-81.999,39.354
146028888117,54,The Spice House,70611,AT,Vienna,u2ed,16.339,48.201
120259084337,50,The Pancake House,59829,GB,London,gcpu,-0.207,51.494
266287972355,4,The Blue Plate,11263,US,San Antonio,9v1z,-98.71,29.414
249108103189,22,The Red Pepper,55897,US,Harrisburg,dr1m,-76.821,40.278
137438953526,55,The Steak House,11038,GB,London,gcpv,-0.157,51.515
180388626495,64,Chateau de Cuisine,7531,GB,London,gcpv,-0.15,51.518
34359738385,18,The Harvest Room,50333,ES,Barcelona,sp3e,2.21,41.401
51539607578,27,The Corner Cafe,6934,US,Woodstock,dr7r,-74.121,42.04
188978561032,9,The Grill House,3642,US,Pawleys Island,djzy,-79.098,33.47
249108103186,19,The Tasting Room,55897,US,Springfield,9q9p,-122.331,37.957
17179869205,22,The Red Pepper,10902,US,Jennerstown,dppu,-79.079,40.164
8589934657,66,City Bites,12630,GB,London,gcpv,-0.125,51.52
51539607591,40,Crimson Cafe,6934,AT,Donauinsel,u2ed,16.417,48.232
120259084328,41,The Daily Bread,59829,FR,Paris,u09t,2.323,48.86
171798691849,10,The Golden Spoon,65939,US,Sunnyvale,9q9h,-122.003,37.352
171798691884,45,The Green Bean,65939,FR,Paris,u09t,2.345,48.852
266287972362,11,The Flaming Wok,11263,US,Osage Beach,9yy0,-92.665,38.127
180388626447,16,The Spice Tree,7531,US,Portland,dp5w,-84.994,40.439
120259084346,59,Azalea Cafe,59829,GB,London,gcpv,-0.184,51.511
137438953490,19,The Tasting Room,11038,US,Cedar Rapids,9zqz,-91.652,42.03
25769803846,71,Fire and Spice,72230,NL,Amsterdam,u173,4.887,52.372
128849018918,39,Cinnamon Grill,5679,IT,Milan,u0nd,9.191,45.466
68719476790,55,The Steak House,77517,GB,London,gcpv,-0.1,51.513
34359738437,70,Earth and Vine,50333,GB,London,gcpv,-0.192,51.537
17179869234,51,The Pizzeria,10902,FR,Paris,u09t,2.381,48.838
249108103177,10,The Golden Spoon,55897,US,Boiling Springs,dnjx,-81.955,35.011
8589934600,9,The Grill House,12630,US,Ballentine,eysb,-4.426,36.715
8589934648,57,The Yellow Submarine,12630,GB,London,gcpu,-0.245,51.494
111669149722,27,The Corner Cafe,84488,ES,Barcelona,sp3e,2.176,41.386
197568495703,88,The Royal Cafe,24784,NL,Amsterdam,u173,4.883,52.368
240518168595,20,The Brasserie,93164,US,Kansas City,9yux,-94.683,39.309
266287972383,32,The Orange Peeler,11263,US,Rockford,dp88,-88.967,42.273
85899345954,35,Basilica Bistro,18952,IT,Milan,u0nd,9.161,45.451
111669149742,47,The Juicy Burger,84488,FR,Paris,u09t,2.286,48.867
94489280568,57,The Yellow Submarine,95399,GB,London,gcpv,-0.135,51.518
56,57,The Yellow Submarine,47732,GB,London,gcpu,-0.211,51.42
257698037833,74,Garden of Eatin',26468,NL,Amsterdam,u173,4.903,52.37
128849018911,32,The Orange Peeler,5679,US,Harmony,9zwx,-92.011,43.561
146028888122,59,Azalea Cafe,70611,FR,Paris,u09t,2.326,48.835
51539607584,33,The Blue Elephant,6934,IT,Milan,u0nd,9.19,45.481
223338299438,47,The Juicy Burger,36937,GB,London,gcpu,-0.157,51.493
25769803817,42,The Daily Scoop,72230,IT,Milan,u0nd,9.143,45.467
28,29,The Olive Branch,47732,US,Sioux City,9ze3,-96.374,42.508
17179869231,48,The Local Cafe,10902,AT,Vienna,u2ed,16.368,48.208
68719476771,36,Blue Ocean Grill,77517,IT,Milan,u0n6,9.124,45.512
77309411394,67,Crimson and Clover,78190,GB,London,gcpv,-0.132,51.519
120259084288,1,Savoria,59829,US,Miami,dhwf,-80.266,25.764
128849018916,37,Cafe Crepe,5679,IT,Milan,u0nd,9.205,45.452
137438953507,36,Blue Ocean Grill,11038,AT,Vienna,u2ed,16.396,48.196
171798691886,47,The Juicy Burger,65939,FR,Paris,u09t,2.341,48.862
163208757305,58,A Tasty Bite,96638,FR,Paris,u09w,2.297,48.87
163208757262,15,The Pearl Kitchen,96638,US,Sainte Genevieve,9yxz,-90.057,37.968
163208757256,9,The Grill House,96638,US,Robinsonville,9ypw,-90.412,34.819
197568495697,82,The Palate,24784,GB,London,gcpv,-0.191,51.51
240518168576,1,Savoria,93164,US,Bristol,9g3q,-99.147,19.435
60129542201,58,A Tasty Bite,71555,GB,London,gcpv,-0.016,51.509
51539607596,45,The Green Bean,6934,FR,Paris,u09t,2.305,48.865
257698037777,18,The Harvest Room,26468,US,Garberville,9ppu,-123.794,40.102
111669149745,50,The Pancake House,84488,FR,Paris,u09w,2.361,48.871
42949672975,16,The Spice Tree,89646,US,Fort Bragg,9ppb,-123.803,39.426
77309411397,70,Earth and Vine,78190,US,Juneau,c427,-134.406,58.3
146028888150,87,The Red Hen,70611,US,East Hickory,u33e,13.569,52.674
17179869228,45,The Green Bean,10902,AT,Vienna,u2ed,16.367,48.203
163208757296,49,The Olive Tree,96638,AT,Vienna,u2ed,16.379,48.202
257698037760,1,Savoria,26468,US,Fort Lauderdale,dhxh,-80.1,26.174
223338299448,57,The Yellow Submarine,36937,NL,Amsterdam,u179,4.944,52.292
180388626501,70,Earth and Vine,7531,NL,Amsterdam,u173,4.899,52.366
188978561068,45,The Green Bean,3642,US,Mobridge,cb0e,-100.424,45.537
42949673011,52,The Red Door,89646,FR,Paris,u09w,2.337,48.869
146028888102,39,Cinnamon Grill,70611,US,Shakopee,9zvw,-93.509,44.801
94489280547,36,Blue Ocean Grill,95399,US,Spearfish,9xyj,-103.848,44.476
8589934634,43,The Food House,12630,FR,Paris,u09t,2.369,48.864
180388626448,17,The Rustic Table,7531,ES,El Prat de Llobregat,sp3e,2.113,41.328
188978561082,59,Azalea Cafe,3642,FR,Paris,u09t,2.34,48.854
77309411356,29,The Olive Branch,78190,US,Saginaw,dpsr,-83.969,43.484
77309411348,21,The Lazy Daisy,78190,US,Columbia,9yym,-92.289,38.961
163208757272,25,The Cozy Cafe,96638,US,Wilmington,dp37,-88.196,41.346
94489280522,11,The Flaming Wok,95399,US,Metropolis,dn8g,-88.691,37.162
60129542190,47,The Juicy Burger,71555,FR,Paris,u09t,2.353,48.863
146028888123,60,Big City Grill,70611,FR,Paris,u09t,2.342,48.845
77309411355,28,The Spicy Pickle,78190,ES,Barcelona,sp3e,2.161,41.396
197568495680,65,Chef's Corner,24784,FR,Paris,u09w,2.331,48.869
146028888068,5,The Hungry Hippo,70611,US,Austin,9v6m,-97.744,30.416
146028888132,69,Dragonfly Cafe,70611,FR,Paris,u09w,2.354,48.873
103079215160,57,The Yellow Submarine,4340,FR,Paris,u09t,2.337,48.867
154618822672,17,The Rustic Table,41484,US,Rockaway Beach,9ytb,-93.15,36.705
51539607558,7,Cafe Roma,6934,US,Inglewood,9q5c,-118.356,33.97
8589934592,1,Savoria,12630,US,Marathon,dhqk,-81.081,24.712
188978561090,67,Crimson and Clover,3642,FR,Paris,u09w,2.305,48.875
197568495694,79,The Huckleberry Cafe,24784,GB,London,gcpu,-0.145,51.496
188978561097,74,Garden of Eatin',3642,GB,Paddington,gcpv,-0.171,51.521
180388626442,11,The Flaming Wok,7531,US,Livermore,9q9q,-121.774,37.698
34359738411,44,The French Kitchen,50333,FR,Paris,u09t,2.348,48.849
120259084338,51,The Pizzeria,59829,GB,London,gcpu,-0.146,51.498
257698037789,30,The Wine Cellar,26468,US,Cody,9xfm,-109.084,44.517
197568495633,18,The Harvest Room,24784,US,Castle Rock,9xj2,-104.867,39.409
60129542212,69,Dragonfly Cafe,71555,NL,Amsterdam,u173,4.884,52.349
15,16,The Spice Tree,47732,US,Steamboat Springs,9xhn,-106.804,40.46
25769803806,31,Bistro 42,72230,US,Erie,dprp,-80.08,42.047
266287972372,21,The Lazy Daisy,11263,US,Kankakee,dp39,-87.869,41.093
51539607579,28,The Spicy Pickle,6934,US,Byron Center,dpe5,-85.669,42.825
8589934595,4,The Blue Plate,12630,US,Santa Maria,9q4q,-120.436,34.94
77309411377,50,The Pancake House,78190,FR,Paris,u09t,2.335,48.865
42949673025,66,City Bites,89646,GB,London,gcpv,-0.047,51.522
240518168629,54,The Spice House,93164,AT,Vienna,u2ed,16.384,48.211
154618822660,5,The Hungry Hippo,41484,US,Bunkie,9vw2,-92.185,30.953
85899345956,37,Cafe Crepe,18952,IT,Milan,u0nd,9.198,45.463
51539607587,36,Blue Ocean Grill,6934,US,Woodland,c20t,-122.74,45.907
206158430275,68,Delish Cafe,53370,FR,Paris,u09w,2.357,48.876
197568495669,54,The Spice House,24784,FR,Paris,u09t,2.341,48.849
231928234002,19,The Tasting Room,33573,ES,Barcelona,sp3e,2.175,41.39
94489280566,55,The Steak House,95399,GB,London,gcpu,-0.163,51.501
8589934643,52,The Red Door,12630,FR,Paris,u09w,2.333,48.887
223338299403,12,The Wooden Spoon,36937,US,Norwood,9wg1,-108.241,38.159
103079215164,61,Blue Water Bistro,4340,GB,London,gcpu,-0.196,51.492
257698037761,2,Bella Cucina,26468,US,Pharr,9udj,-98.179,26.218
223338299431,40,Crimson Cafe,36937,FR,Paris,u09w,2.328,48.871
17179869241,58,A Tasty Bite,10902,FR,Paris,u09t,2.325,48.855
188978561051,28,The Spicy Pickle,3642,ES,Barcelona,sp3e,2.171,41.383
111669149711,16,The Spice Tree,84488,US,Sacramento,9qce,-121.494,38.58
214748364805,6,The Daily Grind,92040,US,Palm Springs,9qj0,-116.543,33.803
34359738384,17,The Rustic Table,50333,ES,Barcelona,sp3e,2.167,41.388
223338299449,58,A Tasty Bite,36937,NL,Amsterdam,u173,4.888,52.354
103079215114,11,The Flaming Wok,4340,US,Atlanta,dnh0,-84.315,33.843
25769803836,61,Blue Water Bistro,72230,GB,London,gcpv,-0.186,51.512
94489280564,53,The Red Rooster,95399,GB,London,gcpu,-0.181,51.496
188978561094,71,Fire and Spice,3642,GB,London,gcpv,-0.219,51.505
137438953474,3,Spice Bazaar,11038,US,Buena Park,9qh0,-118.029,33.858
188978561069,46,The Italian Table,3642,AT,Vienna,u2ed,16.358,48.193
231928234019,36,Blue Ocean Grill,33573,AT,Vienna,u2ed,16.356,48.204
17179869222,39,Cinnamon Grill,10902,IT,Milan,u0nd,9.178,45.466
17179869237,54,The Spice House,10902,FR,Paris,u09t,2.342,48.849
85899345942,23,The Hungry Pig,18952,ES,Barcelona,sp3e,2.14,41.383
257698037808,49,The Olive Tree,26468,FR,Paris,u09t,2.302,48.848
163208757259,12,The Wooden Spoon,96638,US,Dublin,dnwd,-80.697,37.073
42949673012,53,The Red Rooster,89646,FR,Paris,u09w,2.311,48.87
25769803839,64,Chateau de Cuisine,72230,GB,London,gcpv,-0.086,51.522
214748364854,55,The Steak House,92040,FR,Paris,u09t,2.331,48.864
240518168634,59,Azalea Cafe,93164,FR,Paris,u09t,2.293,48.856
34359738444,77,Harvest Kitchen,50333,NL,Amsterdam,u176,4.868,52.392
206158430289,82,The Palate,53370,GB,London,gcpv,-0.076,51.51
171798691883,44,The French Kitchen,65939,FR,Paris,u09t,2.278,48.852
17179869259,76,Happy Hour Cafe,10902,GB,London,gcpv,-0.117,51.513
60129542174,31,Bistro 42,71555,ES,Barcelona,sp3e,2.121,41.389
180388626471,40,Crimson Cafe,7531,AT,Vienna,u2ed,16.377,48.205
42949672974,15,The Pearl Kitchen,89646,US,Saint Leonard,dqcd,-76.507,38.475
240518168643,68,Delish Cafe,93164,GB,London,gcpv,-0.184,51.513
231928233996,13,The Firehouse,33573,US,Colorado Springs,9wvm,-104.824,38.916
137438953498,27,The Corner Cafe,11038,IT,Milan,u0nd,9.155,45.468
68719476765,30,The Wine Cellar,77517,IT,Milan,u0nd,9.173,45.441
85899345951,32,The Orange Peeler,18952,US,Milwaukee,dp9k,-87.906,43.039
34359738375,8,The Green Olive,50333,US,Alamosa,9wst,-105.86,37.471
249108103230,63,Cafe Paris,55897,GB,London,gcpu,-0.183,51.492
41,42,The Daily Scoop,47732,AT,Vienna,u2e9,16.345,48.159
85899345940,21,The Lazy Daisy,18952,US,Bowling Green,dpke,-83.619,41.375
223338299420,29,The Olive Branch,36937,US,Washington,u0n6,9.072,45.427
171798691889,50,The Pancake House,65939,FR,Paris,u09w,2.336,48.882
103079215121,18,The Harvest Room,4340,US,Mount Airy,dnqx,-80.602,36.481
154618822678,23,The Hungry Pig,41484,ES,Barcelona,sp3e,2.17,41.383
8589934624,33,The Blue Elephant,12630,US,Burnsville,9zvw,-93.291,44.769
206158430283,76,Happy Hour Cafe,53370,GB,London,gcpu,-0.192,51.499
111669149738,43,The Food House,84488,FR,Paris,u09t,2.296,48.849
231928234004,21,The Lazy Daisy,33573,ES,Barcelona,sp3e,2.212,41.405
34359738379,12,The Wooden Spoon,50333,US,Crystal Bay,9qfx,-120.006,39.225
171798691904,65,Chef's Corner,65939,GB,London,gcpv,-0.146,51.54
214748364867,68,Delish Cafe,92040,GB,London,gcpu,-0.169,51.496
223338299411,20,The Brasserie,36937,ES,Barcelona,sp3e,2.129,41.386
60129542164,21,The Lazy Daisy,71555,US,Towson,dr18,-76.601,39.407
257698037767,8,The Green Olive,26468,US,Douglasville,dn5b,-84.716,33.751
94489280561,50,The Pancake House,95399,FR,Paris,u09w,2.299,48.881
163208757322,75,Greenhouse Cafe,96638,NL,Amsterdam,u173,4.887,52.369
214748364851,52,The Red Door,92040,FR,Paris,u09t,2.336,48.854
163208757270,23,The Hungry Pig,96638,US,Bellefonte,dr28,-77.78,40.883
17179869194,11,The Flaming Wok,10902,US,Hot Springs National Park,9yju,-93.057,34.498
197568495662,47,The Juicy Burger,24784,AT,Vienna,u2ed,16.371,48.202
154618822656,1,Savoria,41484,US,Key West,dhmg,-81.794,24.547
137438953514,43,The Food House,11038,FR,Paris,u09t,2.369,48.855
85899345939,20,The Brasserie,18952,US,Wapello,9zr4,-91.19,41.175
103079215144,41,The Daily Bread,4340,US,Random Lake,dp9r,-87.94,43.559
51539607589,38,Cafe Viva,6934,AT,Vienna,u2ed,16.408,48.191
120259084312,25,The Cozy Cafe,59829,US,Douglas,9xt4,-105.333,42.678
85899345947,28,The Spicy Pickle,18952,US,Coralville,9zqv,-91.607,41.701
240518168617,42,The Daily Scoop,93164,US,Worthington,9zu0,-95.581,43.629
128849018925,46,The Italian Table,5679,FR,Paris,u09t,2.353,48.83
128849018924,45,The Green Bean,5679,AT,Vienna,u2ed,16.367,48.198
197568495618,3,Spice Bazaar,24784,US,Englewood,dhv3,-82.319,26.935
8589934646,55,The Steak House,12630,GB,London,gcpu,-0.229,51.424
25769803834,59,Azalea Cafe,72230,FR,Paris,u09w,2.334,48.88
257698037787,28,The Spicy Pickle,26468,US,Interior,9xz2,-101.965,43.738
257698037770,11,The Flaming Wok,26468,US,Memphis,dn0p,-89.799,35.036
163208757278,31,Bistro 42,96638,ES,Barcelona,sp3e,2.126,41.39
240518168608,33,The Blue Elephant,93164,ES,Barcelona,sp3e,2.173,41.405
214748364832,33,The Blue Elephant,92040,IT,Milan,u0nd,9.195,45.451
34359738404,37,Cafe Crepe,50333,AT,Vienna,u2ed,16.37,48.21
120259084298,11,The Flaming Wok,59829,US,Palm Springs,9qj0,-116.545,33.841
25769803809,34,The Tasty Treat,72230,US,Grand Rapids,dpeh,-85.574,42.909
8589934621,30,The Wine Cellar,12630,US,Humeston,srb1,11.251,43.772
266287972363,12,The Wooden Spoon,11263,US,Brandywine,dqc7,-76.876,38.669
60129542191,48,The Local Cafe,71555,FR,Paris,u09t,2.332,48.864
214748364859,60,Big City Grill,92040,FR,Paris,u09w,2.325,48.869
17179869239,56,The Waffle House,10902,FR,Paris,u09t,2.381,48.854
25769803826,51,The Pizzeria,72230,FR,Paris,u09t,2.362,48.856
94489280541,30,The Wine Cellar,95399,US,Narragansett,drm5,-71.456,41.428
8589934602,11,The Flaming Wok,12630,US,Dodge City,9y8y,-100.041,37.754
44,45,The Green Bean,47732,AT,Vienna,u2ed,16.348,48.198
34359738390,23,The Hungry Pig,50333,US,Saint Paul,9zvz,-93.155,44.971
231928234022,39,Cinnamon Grill,33573,US,Whitefish,c2we,-114.336,48.391
154618822673,18,The Harvest Room,41484,US,Licking,9ywt,-91.988,37.461
128849018952,73,Fresh Harvest,5679,GB,London,gcpv,-0.18,51.513
34359738426,59,Azalea Cafe,50333,GB,London,gcpu,-0.178,51.47
17179869196,13,The Firehouse,10902,US,Cary,dnrg,-78.79,35.733
223338299404,13,The Firehouse,36937,US,Lake Ozark,9yy1,-92.665,38.206
249108103212,45,The Green Bean,55897,IT,Milan,u0nd,9.197,45.477
60129542194,51,The Pizzeria,71555,FR,Paris,u09w,2.309,48.871
206158430278,71,Fire and Spice,53370,GB,London,gcpu,-0.195,51.492
51539607592,41,The Daily Bread,6934,AT,Vienna,u2ed,16.305,48.251
111669149737,42,The Daily Scoop,84488,FR,Paris,u09t,2.324,48.84
111669149705,10,The Golden Spoon,84488,US,Irmo,dnn3,-81.161,34.091
34359738369,2,Bella Cucina,50333,US,Pleasanton,9v1u,-98.479,28.967
42949673015,56,The Waffle House,89646,FR,Paris,u09w,2.319,48.873
85899345970,51,The Pizzeria,18952,FR,Paris,u09w,2.335,48.87
94489280534,23,The Hungry Pig,95399,ES,Barcelona,sp3e,2.127,41.381
68719476791,56,The Waffle House,77517,GB,Paddington,gcpv,-0.18,51.514
214748364852,53,The Red Rooster,92040,FR,Paris,u09t,2.308,48.859
249108103220,53,The Red Rooster,55897,FR,Paris,u09t,2.357,48.833
206158430259,52,The Red Door,53370,AT,Vienna,u2ed,16.377,48.2
34359738423,56,The Waffle House,50333,FR,Paris,u09w,2.356,48.879
206158430216,9,The Grill House,53370,US,Canton,dn5f,-84.464,34.255
249108103235,68,Delish Cafe,55897,GB,London,gcpv,-0.085,51.514
188978561100,77,Harvest Kitchen,3642,GB,London,gcpv,-0.136,51.527
30,31,Bistro 42,47732,US,Herkimer,drds,-74.993,43.019
171798691902,63,Cafe Paris,65939,GB,London,gcpv,-0.157,51.521
214748364812,13,The Firehouse,92040,US,Ridgefield Park,sp42,3.237,39.378
103079215142,39,Cinnamon Grill,4340,US,Albany,dre7,-73.834,42.718
48,49,The Olive Tree,47732,FR,Paris,u09t,2.357,48.858
47,48,The Local Cafe,47732,FR,Paris,u09t,2.339,48.85
94489280536,25,The Cozy Cafe,95399,ES,Barcelona,sp3e,2.167,41.391
180388626483,52,The Red Door,7531,FR,Paris,u09w,2.336,48.874
60129542179,36,Blue Ocean Grill,71555,IT,Milan,u0nd,9.204,45.481
257698037800,41,The Daily Bread,26468,AT,Vienna,u2ed,16.337,48.215
146028888126,63,Cafe Paris,70611,FR,Paris,u09t,2.317,48.857
85899345935,16,The Spice Tree,18952,US,Springfield,dqch,-77.179,38.776
85899345946,27,The Corner Cafe,18952,US,West Yarmouth,drqh,-70.256,41.655
188978561070,47,The Juicy Burger,3642,AT,Vienna,u2ed,16.356,48.203
206158430226,19,The Tasting Room,53370,US,Ocean City,dqfz,-74.576,39.276
188978561071,48,The Local Cafe,3642,AT,Vienna,u2ed,16.377,48.206
231928233998,15,The Pearl Kitchen,33573,US,Coalville,9x2b,-111.403,40.911
214748364804,5,The Hungry Hippo,92040,US,Summerton,djyz,-80.357,33.592
85899345981,62,Cafe Luminoso,18952,GB,London,gcpv,-0.183,51.519
34359738441,74,Garden of Eatin',50333,NL,Amsterdam,u173,4.886,52.356
214748364824,25,The Cozy Cafe,92040,US,Schenectady,dre7,-73.939,42.764
240518168636,61,Blue Water Bistro,93164,FR,Paris,u09w,2.329,48.868
25769803814,39,Cinnamon Grill,72230,US,Rangeley,drvz,-70.643,44.966
214748364862,63,Cafe Paris,92040,FR,Paris,u09w,2.286,48.88
25769803844,69,Dragonfly Cafe,72230,NL,Amsterdam,u173,4.885,52.365
77309411387,60,Big City Grill,78190,GB,London,gcpu,-0.177,51.495
188978561067,44,The French Kitchen,3642,US,Troutdale,c20g,-122.421,45.537
206158430284,77,Harvest Kitchen,53370,GB,London,gcpu,-0.162,51.5
154618822725,70,Earth and Vine,41484,GB,London,gcpv,-0.151,51.506
85899345982,63,Cafe Paris,18952,GB,London,gcpv,-0.154,51.519
266287972388,37,Cafe Crepe,11263,IT,Milan,u0nd,9.196,45.464
8589934625,34,The Tasty Treat,12630,US,Big Sky,c80c,-111.393,45.286
188978561065,42,The Daily Scoop,3642,IT,Milan,u0nd,9.213,45.48
85899345979,60,Big City Grill,18952,GB,London,gcpv,-0.127,51.515
171798691854,15,The Pearl Kitchen,65939,US,Redding,9r0y,-122.384,40.599
249108103183,16,The Spice Tree,55897,US,Durango,9wek,-107.873,37.296
266287972405,54,The Spice House,11263,FR,Paris,u09w,2.298,48.869
197568495664,49,The Olive Tree,24784,AT,Vienna,u2ed,16.376,48.202
154618822658,3,Spice Bazaar,41484,US,Alliance,tuut,85.356,27.722
240518168621,46,The Italian Table,93164,IT,Milan,u0nd,9.179,45.453
77309411393,66,City Bites,78190,GB,London,gcpv,-0.122,51.517
17179869209,26,The Silver Spoon,10902,ES,Barcelona,sp3e,2.201,41.396
103079215139,36,Blue Ocean Grill,4340,US,Burwell,9z3t,-99.126,41.782
163208757274,27,The Corner Cafe,96638,ES,Barcelona,sp3e,2.172,41.373
240518168606,31,Bistro 42,93164,ES,Barcelona,sp3e,2.18,41.39
240518168619,44,The French Kitchen,93164,US,Rangeley,drvz,-70.643,44.965
171798691888,49,The Olive Tree,65939,FR,Paris,u09w,2.361,48.869
223338299436,45,The Green Bean,36937,GB,London,gcpu,-0.148,51.482
240518168632,57,The Yellow Submarine,93164,FR,Paris,u09t,2.275,48.851
266287972387,36,Blue Ocean Grill,11263,US,Enterprise,c2hd,-117.298,45.423
180388626444,13,The Firehouse,7531,US,Corydon,dnf9,-86.133,38.233
68719476795,60,Big City Grill,77517,GB,London,gcpv,-0.16,51.516
180388626433,2,Bella Cucina,7531,US,Van Horn,9vk2,-95.038,29.672
68719476756,21,The Lazy Daisy,77517,ES,Barcelona,sp3e,2.17,41.41
171798691891,52,The Red Door,65939,FR,Paris,u09w,2.319,48.884
240518168623,48,The Local Cafe,93164,IT,Milan,u0nd,9.199,45.479
223338299413,22,The Red Pepper,36937,ES,Barcelona,sp3e,2.165,41.389
154618822730,75,Greenhouse Cafe,41484,GB,London,gcpv,-0.076,51.513
188978561027,4,The Blue Plate,3642,US,Sulphur,9vme,-93.327,30.214
180388626496,65,Chef's Corner,7531,GB,London,gcpv,-0.128,51.518
77309411345,18,The Harvest Room,78190,US,Berea,dnsj,-84.346,37.617
197568495701,86,The Porch Cafe,24784,GB,London,gcpv,-0.108,51.522
257698037772,13,The Firehouse,26468,US,Corte Madera,9q8z,-122.518,37.93
120259084304,17,The Rustic Table,59829,US,Strasburg,dr1g,-76.151,39.972
51539607559,8,The Green Olive,6934,US,Albuquerque,9whp,-106.668,35.1
266287972368,17,The Rustic Table,11263,US,Finleyville,dpph,-80.004,40.252
197568495628,13,The Firehouse,24784,US,Springdale,9ymj,-94.184,36.17
68719476783,48,The Local Cafe,77517,FR,Paris,u09w,2.317,48.875
128849018906,27,The Corner Cafe,5679,ES,Barcelona,sp3e,2.148,41.402
137438953489,18,The Harvest Room,11038,ES,Barcelona,sp3e,2.137,41.403
266287972413,62,Cafe Luminoso,11263,FR,Paris,u09w,2.343,48.877
163208757292,45,The Green Bean,96638,US,Grand Rapids,cbmk,-93.518,47.235
154618822665,10,The Golden Spoon,41484,US,Santa Barbara,9q4g,-119.708,34.429
171798691868,29,The Olive Branch,65939,IT,Milan,u0nd,9.207,45.468
206158430249,42,The Daily Scoop,53370,IT,Milan,u0nd,9.195,45.464
34359738407,40,Crimson Cafe,50333,AT,Vienna,u2ed,16.371,48.214
25769803779,4,The Blue Plate,72230,US,Griffin,djuj,-84.292,33.287
120259084309,22,The Red Pepper,59829,ES,Barcelona,sp3e,2.171,41.391
197568495652,37,Cafe Crepe,24784,IT,Milan,u0nd,9.184,45.477
223338299408,17,The Rustic Table,36937,US,Columbus,dphu,-83.012,40.114
240518168649,74,Garden of Eatin',93164,NL,Amsterdam,u173,4.878,52.363
214748364801,2,Bella Cucina,92040,US,Opelousas,9vqt,-92.071,30.515
111669149721,26,The Silver Spoon,84488,ES,Barcelona,sp3e,2.138,41.385
111669149709,14,The Gourmet Garden,84488,US,Monterey,9q92,-121.896,36.601
137438953484,13,The Firehouse,11038,US,Fort Collins,9xjq,-105.008,40.583
231928233993,10,The Golden Spoon,33573,US,St. Robert,9ywr,-92.141,37.823
240518168607,32,The Orange Peeler,93164,ES,Barcelona,sp3e,2.168,41.394
17179869257,74,Garden of Eatin',10902,GB,London,gcpv,-0.155,51.51
103079215166,63,Cafe Paris,4340,GB,London,gcpu,-0.143,51.499
188978561083,60,Big City Grill,3642,FR,Paris,u09t,2.362,48.862
137438953508,37,Cafe Crepe,11038,AT,Vienna,u2ed,16.353,48.208
60129542213,70,Earth and Vine,71555,NL,Amsterdam,u179,4.926,52.359
111669149725,30,The Wine Cellar,84488,ES,Barcelona,sp3e,2.144,41.407
180388626477,46,The Italian Table,7531,FR,Paris,u09t,2.318,48.86
240518168614,39,Cinnamon Grill,93164,US,American Falls,9rxe,-112.859,42.776
171798691875,36,Blue Ocean Grill,65939,AT,Vienna,u2ed,16.399,48.192
111669149753,58,A Tasty Bite,84488,GB,London,gcpv,-0.142,51.509
180388626463,32,The Orange Peeler,7531,IT,Milan,u0nd,9.209,45.447
188978561076,53,The Red Rooster,3642,AT,Vienna,u2ed,16.314,48.224
214748364839,40,Crimson Cafe,92040,AT,Vienna,u2ed,16.405,48.185
94489280527,16,The Spice Tree,95399,US,Reston,dqbv,-77.356,38.959
154618822659,4,The Blue Plate,41484,US,Floresville,9v4j,-98.155,29.143
40,41,The Daily Bread,47732,US,Saint Cloud,cbj5,-94.156,45.561
137438953482,11,The Flaming Wok,11038,US,Lanham,dqcm,-76.862,38.961
180388626467,36,Blue Ocean Grill,7531,IT,Milan,u0nd,9.228,45.502
266287972397,46,The Italian Table,11263,US,Columbia Falls,c2wg,-114.152,48.364
223338299410,19,The Tasting Room,36937,US,North Platte,9z26,-100.757,41.135
68719476764,29,The Olive Branch,77517,IT,Milan,u0nd,9.231,45.438
240518168589,14,The Gourmet Garden,93164,US,Bryson City,dnk9,-83.56,35.34
266287972400,49,The Olive Tree,11263,FR,Paris,u09t,2.324,48.85
128849018888,9,The Grill House,5679,US,Hopkinsville,dn9c,-87.495,36.811
137438953521,50,The Pancake House,11038,GB,London,gcpu,-0.189,51.495
120259084319,32,The Orange Peeler,59829,US,Ironwood,cbrb,-90.162,46.463
223338299393,2,Bella Cucina,36937,US,Kailua Kona,8e3p,-155.989,19.63
120259084348,61,Blue Water Bistro,59829,GB,London,gcpv,-0.131,51.521
94489280537,26,The Silver Spoon,95399,ES,Barcelona,sp3e,2.165,41.393
128849018885,6,The Daily Grind,5679,US,Raleigh,dq2h,-78.543,35.95
42949672976,17,The Rustic Table,89646,US,New Castle,dr43,-75.551,39.698
197568495651,36,Blue Ocean Grill,24784,US,Brookings,9zgh,-96.763,44.311
52,53,The Red Rooster,47732,FR,Paris,u09w,2.352,48.871
171798691897,58,A Tasty Bite,65939,GB,Paddington,gcpv,-0.178,51.515
154618822666,11,The Flaming Wok,41484,US,Olive Branch,dn0n,-89.857,34.964
257698037768,9,The Grill House,26468,US,North Myrtle Beach,dq00,-78.735,33.791
17179869203,20,The Brasserie,10902,US,College Park,dqcm,-76.904,38.996
94489280528,17,The Rustic Table,95399,US,Plainfield,dp49,-86.367,39.675
146028888149,86,The Porch Cafe,70611,NL,Amsterdam,u173,4.89,52.373
206158430290,83,The Pantry,53370,GB,London,gcpv,-0.124,51.511
137438953485,14,The Gourmet Garden,11038,US,Walden,9xhr,-106.282,40.73
188978561077,54,The Spice House,3642,FR,Paris,u09t,2.319,48.834
1,2,Bella Cucina,47732,US,Beaumont,9vm4,-94.159,30.039
68719476770,35,Basilica Bistro,77517,IT,Milan,u0nd,9.183,45.489
25769803835,60,Big City Grill,72230,GB,London,gcpu,-0.136,51.494
154618822700,45,The Green Bean,41484,US,Mott,c8pp,-102.336,46.375
17179869214,31,Bistro 42,10902,US,Wakonda,9zdu,-97.108,43.009
171798691878,39,Cinnamon Grill,65939,AT,Vienna,u2ed,16.368,48.211
103079215151,48,The Local Cafe,4340,US,Spokane,c2kx,-117.411,47.686
146028888099,36,Blue Ocean Grill,70611,US,Oscoda,dpus,-83.328,44.408
137438953524,53,The Red Rooster,11038,GB,London,gcpv,-0.131,51.511
188978561080,57,The Yellow Submarine,3642,FR,Paris,u09t,2.38,48.85
49,50,The Pancake House,47732,FR,Paris,u09t,2.289,48.865
137438953497,26,The Silver Spoon,11038,IT,Milan,u0nd,9.207,45.464
231928234034,51,The Pizzeria,33573,GB,London,gcpv,-0.145,51.506
137438953505,34,The Tasty Treat,11038,AT,Vienna,u2ed,16.381,48.182
17179869195,12,The Wooden Spoon,10902,US,Dahlonega,dnhk,-83.976,34.525
8589934622,31,Bistro 42,12630,US,Black River Falls,9zzk,-90.82,44.298
266287972415,64,Chateau de Cuisine,11263,FR,Paris,u09w,2.338,48.881
25769803783,8,The Green Olive,72230,US,Los Olivos,9q4t,-120.115,34.665
94489280565,54,The Spice House,95399,GB,London,gcpu,-0.206,51.497
137438953531,60,Big City Grill,11038,NL,Amsterdam,u173,4.894,52.349
25769803815,40,Crimson Cafe,72230,IT,Milan,u0nd,9.196,45.453
137438953512,41,The Daily Bread,11038,FR,Paris,u09t,2.323,48.838
17179869253,70,Earth and Vine,10902,GB,London,gcpu,-0.079,51.499
197568495632,17,The Rustic Table,24784,US,Ely,9qyr,-114.891,39.248
60129542182,39,Cinnamon Grill,71555,AT,Vienna,u2ed,16.366,48.21
231928234013,30,The Wine Cellar,33573,IT,Milan,u0nd,9.145,45.479
266287972430,79,The Huckleberry Cafe,11263,GB,London,gcpv,-0.19,51.536
240518168603,28,The Spicy Pickle,93164,ES,Barcelona,sp3e,2.195,41.386
180388626474,43,The Food House,7531,FR,Paris,u09t,2.322,48.847
137438953480,9,The Grill House,11038,US,San Francisco,9q8z,-122.436,37.8
163208757307,60,Big City Grill,96638,FR,Paris,u09w,2.29,48.874
60129542147,4,The Blue Plate,71555,US,Georgetown,djzw,-79.274,33.424
60,61,Blue Water Bistro,47732,GB,London,gcpv,-0.273,51.508
240518168593,18,The Harvest Room,93164,US,Arlington,dqcj,-77.072,38.895
25769803793,18,The Harvest Room,72230,US,Englewood,sxk3,28.803,41.001
240518168639,64,Chateau de Cuisine,93164,FR,Paris,u09w,2.319,48.871
154618822694,39,Cinnamon Grill,41484,IT,Milan,u0nd,9.204,45.479
60129542198,55,The Steak House,71555,US,Irving,u09w,2.301,48.887
171798691870,31,Bistro 42,65939,IT,Milan,u0nd,9.167,45.483
25769803792,17,The Rustic Table,72230,US,Elko,9rm8,-115.751,40.844
197568495656,41,The Daily Bread,24784,IT,Milan,u0nd,9.2,45.486
120259084347,60,Big City Grill,59829,GB,London,gcpv,-0.148,51.513
94489280544,33,The Blue Elephant,95399,US,Ogunquit,drty,-70.6,43.256
163208757264,17,The Rustic Table,96638,US,Bowie,dqcm,-76.717,38.943
146028888097,34,The Tasty Treat,70611,US,Ames,srb1,11.298,43.802
17179869246,63,Cafe Paris,10902,FR,Paris,u09w,2.293,48.873
85899345927,8,The Green Olive,18952,US,Macon,dju6,-83.723,32.805
34359738428,61,Blue Water Bistro,50333,GB,London,gcpu,-0.183,51.496
128849018882,3,Spice Bazaar,5679,US,Avalon,9mgv,-118.382,33.365
231928233985,2,Bella Cucina,33573,US,San Marcos,9v63,-97.99,29.825
34359738431,64,Chateau de Cuisine,50333,GB,London,u10j,0.025,51.508
34359738376,9,The Grill House,50333,US,San Jose,sqdt,15.06,37.523
249108103218,51,The Pizzeria,55897,AT,Vienna,u2ed,16.347,48.213
214748364815,16,The Spice Tree,92040,US,Dayton,dph4,-84.189,39.85
163208757309,62,Cafe Luminoso,96638,FR,Paris,u09w,2.35,48.889
266287972382,31,Bistro 42,11263,US,Chicago,dp3w,-87.641,41.88
103079215176,73,Fresh Harvest,4340,GB,London,gcpv,-0.126,51.531
60129542209,66,City Bites,71555,GB,London,gcpv,-0.062,51.532
77309411391,64,Chateau de Cuisine,78190,GB,London,gcpv,-0.085,51.513
171798691890,51,The Pizzeria,65939,FR,Paris,u09w,2.341,48.882
171798691851,12,The Wooden Spoon,65939,US,O Fallon,9yzs,-90.679,38.8
257698037820,61,Blue Water Bistro,26468,FR,Paris,u09w,2.337,48.882
8589934637,46,The Italian Table,12630,FR,Paris,u09w,2.33,48.868
146028888067,4,The Blue Plate,70611,US,Houston,9vk1,-95.488,29.837
180388626459,28,The Spicy Pickle,7531,US,Cody,9xfm,-109.081,44.517
197568495698,83,The Pantry,24784,GB,London,gcpv,-0.082,51.515
25769803819,44,The French Kitchen,72230,IT,Milan,u0nd,9.206,45.5
111669149732,37,Cafe Crepe,84488,AT,Vienna,u2e9,16.406,48.151
9,10,The Golden Spoon,47732,US,Springdale,9qxe,-112.992,37.197
111669149726,31,Bistro 42,84488,US,Manassas,spqm,8.899,41.697
42949673020,61,Blue Water Bistro,89646,FR,Paris,u09w,2.395,48.889
240518168601,26,The Silver Spoon,93164,ES,Barcelona,sp3e,2.154,41.373
42949673024,65,Chef's Corner,89646,GB,Paddington,gcpv,-0.174,51.515
188978561073,50,The Pancake House,3642,AT,Vienna,u2ed,16.372,48.209
197568495619,4,The Blue Plate,24784,US,San Antonio,9v1z,-98.482,29.504
266287972354,3,Spice Bazaar,11263,US,Jupiter,dhz1,-80.086,26.935
163208757287,40,Crimson Cafe,96638,US,Gaylord,f05b,-84.664,45.028
163208757284,37,Cafe Crepe,96638,US,Hampton,drts,-70.815,42.902
51539607575,24,The Fisherman's Catch,6934,ES,Barcelona,sp3e,2.157,41.392
11,12,The Wooden Spoon,47732,US,Kansas City,9yux,-94.684,39.307
231928234029,46,The Italian Table,33573,FR,Paris,u09w,2.3,48.868
25769803801,26,The Silver Spoon,72230,ES,Barcelona,sp3e,2.209,41.401
137438953472,1,Savoria,11038,US,Dallas,9vg1,-96.857,32.644
197568495702,87,The Red Hen,24784,GB,London,gcpv,-0.08,51.527
42949672999,40,Crimson Cafe,89646,IT,Milan,u0nd,9.16,45.485
77309411385,58,A Tasty Bite,78190,GB,London,gcpu,-0.191,51.494
146028888078,15,The Pearl Kitchen,70611,US,Glasgow,dndf,-85.962,36.955
188978561063,40,Crimson Cafe,3642,IT,Milan,u0nd,9.214,45.469
180388626456,25,The Cozy Cafe,7531,US,Alma,dpey,-84.607,43.377
128849018951,72,Flamingo Cafe,5679,GB,London,gcpv,-0.193,51.513
197568495665,50,The Pancake House,24784,FR,Paris,u09t,2.321,48.838
266287972353,2,Bella Cucina,11263,US,Honolulu,87zc,-157.831,21.282
154618822696,41,The Daily Bread,41484,IT,Milan,u0nd,9.183,45.485
240518168592,17,The Rustic Table,93164,US,Ocean City,dqfd,-75.054,38.432
42949673000,41,The Daily Bread,89646,IT,Milan,u0nd,9.206,45.485
60129542149,6,The Daily Grind,71555,US,Jasper,dn1b,-87.259,33.846
103079215104,1,Savoria,4340,US,Kapaa,87yt,-159.338,22.043
188978561044,21,The Lazy Daisy,3642,US,Mammoth Lakes,9qeq,-118.993,37.643
266287972402,51,The Pizzeria,11263,FR,Paris,u09t,2.307,48.854
188978561092,69,Dragonfly Cafe,3642,GB,London,gcpu,-0.217,51.501
25769803805,30,The Wine Cellar,72230,US,Mansfield,dr3j,-77.078,41.807
34359738377,10,The Golden Spoon,50333,US,Owensboro,dndn,-87.108,37.774
240518168646,71,Fire and Spice,93164,GB,London,gcpv,-0.138,51.524
6,7,Cafe Roma,47732,US,Southport,dq03,-78.052,33.953
231928233999,16,The Spice Tree,33573,ES,Barcelona,sp3e,2.138,41.378
60129542155,12,The Wooden Spoon,71555,US,Albuquerque,9whp,-106.693,35.084
111669149719,24,The Fisherman's Catch,84488,ES,Barcelona,sp3e,2.141,41.384
163208757303,56,The Waffle House,96638,FR,Paris,u09t,2.347,48.86
249108103214,47,The Juicy Burger,55897,IT,Milan,u0n6,9.138,45.501
42949672964,5,The Hungry Hippo,89646,US,Lumberton,dnpv,-79.003,34.67
8589934663,72,Flamingo Cafe,12630,NL,Amsterdam,u173,4.896,52.368
51539607571,20,The Brasserie,6934,ES,Barcelona,sp3e,2.174,41.381
8589934631,40,Crimson Cafe,12630,FR,Paris,u09t,2.279,48.833
10,11,The Flaming Wok,47732,US,Grand Junction,9wfy,-108.544,39.107
34359738436,69,Dragonfly Cafe,50333,GB,London,gcpv,-0.159,51.515
36,37,Cafe Crepe,47732,IT,Milan,u0nd,9.192,45.458
231928234039,56,The Waffle House,33573,NL,Amsterdam,u173,4.825,52.342
266287972391,40,Crimson Cafe,11263,IT,Milan,u0nd,9.191,45.473
197568495684,69,Dragonfly Cafe,24784,FR,Paris,u09w,2.307,48.877
17179869219,36,Blue Ocean Grill,10902,US,Newport,9pzy,-124.061,44.674
42949672970,11,The Flaming Wok,89646,US,Bella Vista,9ykz,-94.252,36.464
8589934611,20,The Brasserie,12630,US,Pittsburgh,dppn,-79.932,40.453
68719476747,12,The Wooden Spoon,77517,US,Virginia Beach,dq9c,-75.976,36.855
34359738381,14,The Gourmet Garden,50333,US,Bloomington,dp0w,-89.025,40.481
128849018927,48,The Local Cafe,5679,FR,Paris,u09t,2.389,48.839
188978561052,29,The Olive Branch,3642,ES,Barcelona,sp3e,2.173,41.392
249108103211,44,The French Kitchen,55897,IT,Milan,u0nd,9.154,45.461
34359738414,47,The Juicy Burger,50333,FR,Paris,u09t,2.34,48.855
257698037776,17,The Rustic Table,26468,US,Vail,9xh3,-106.368,39.639
103079215138,35,Basilica Bistro,4340,US,Tinley Park,dp3s,-87.794,41.557
120259084316,29,The Olive Branch,59829,IT,Milan,u0nd,9.159,45.466
249108103201,34,The Tasty Treat,55897,ES,Barcelona,sp3e,2.162,41.393
42949673021,62,Cafe Luminoso,89646,GB,London,gcpu,-0.185,51.502
257698037807,48,The Local Cafe,26468,FR,Paris,u09t,2.331,48.843
163208757300,53,The Red Rooster,96638,FR,Vincennes,u09t,2.415,48.855
42949672989,30,The Wine Cellar,89646,US,Valentine,9z87,-100.551,42.871
146028888082,19,The Tasting Room,70611,US,Mosca,9wsw,-105.87,37.654
249108103217,50,The Pancake House,55897,AT,Vienna,u2ed,16.376,48.208
120259084289,2,Bella Cucina,59829,US,Bradenton,dhvk,-82.576,27.424
60129542161,18,The Harvest Room,71555,US,Fairview Heights,dnb5,-89.994,38.602
42949673031,72,Flamingo Cafe,89646,NL,Amsterdam,u173,4.894,52.376
0,1,Savoria,47732,US,Indian Rocks Beach,dhvn,-82.844,27.85
8589934626,35,Basilica Bistro,12630,IT,Milan,u0nd,9.149,45.48
223338299440,49,The Olive Tree,36937,GB,London,gcpu,-0.188,51.502
197568495682,67,Crimson and Clover,24784,FR,Paris,u09w,2.35,48.874
103079215156,53,The Red Rooster,4340,FR,Paris,u09t,2.357,48.825
68719476776,41,The Daily Bread,77517,AT,Vienna,u2ed,16.422,48.214
214748364828,29,The Olive Branch,92040,US,Pierre,9zbs,-100.349,44.376
137438953486,15,The Pearl Kitchen,11038,ES,Barcelona,sp3e,2.157,41.385
128849018890,11,The Flaming Wok,5679,US,Durango,9wek,-107.868,37.304
25769803798,23,The Hungry Pig,72230,ES,Barcelona,sp3e,2.149,41.394
128849018921,42,The Daily Scoop,5679,US,Eagle River,f00t,-89.274,45.915
128849018945,66,City Bites,5679,GB,London,gcpu,-0.178,51.495
154618822737,82,The Palate,41484,NL,Amsterdam,u176,4.894,52.385
231928234000,17,The Rustic Table,33573,ES,Barcelona,sp3e,2.151,41.386
240518168645,70,Earth and Vine,93164,GB,London,gcpv,-0.078,51.521
223338299444,53,The Red Rooster,36937,GB,London,gcpv,-0.122,51.514
120259084349,62,Cafe Luminoso,59829,GB,London,gcpv,-0.11,51.532
146028888118,55,The Steak House,70611,AT,Vienna,u2ed,16.372,48.208
60129542204,61,Blue Water Bistro,71555,GB,London,gcpv,-0.157,51.516
154618822739,84,The Pink Door,41484,NL,Amsterdam,u176,4.835,52.387
34359738432,65,Chef's Corner,50333,GB,London,u10j,0.036,51.508
68719476766,31,Bistro 42,77517,IT,Milan,u0nd,9.17,45.45
240518168610,35,Basilica Bistro,93164,US,Des Moines,9zmk,-93.645,41.522
206158430288,81,The Oak Room,53370,GB,London,gcpv,-0.137,51.509
68719476792,57,The Yellow Submarine,77517,GB,London,gcpv,-0.156,51.514
206158430270,63,Cafe Paris,53370,FR,Paris,u09t,2.336,48.864
180388626473,42,The Daily Scoop,7531,FR,Paris,u09t,2.329,48.844
188978561042,19,The Tasting Room,3642,US,Lamar,9ysv,-94.299,37.487
17179869197,14,The Gourmet Garden,10902,US,Alamosa,9wst,-105.906,37.481
77309411365,38,Cafe Viva,78190,US,Saint Ignace,f05s,-84.732,45.876
34359738408,41,The Daily Bread,50333,AT,Vienna,u2ed,16.386,48.22
17179869206,23,The Hungry Pig,10902,US,Pittsburgh,dppn,-80.106,40.451
197568495700,85,The Plum Cafe,24784,GB,London,gcpv,-0.292,51.521
128849018886,7,Cafe Roma,5679,US,Seiling,9y3t,-98.925,36.144
85899345934,15,The Pearl Kitchen,18952,US,Saint Charles,9yzs,-90.495,38.771
60129542167,24,The Fisherman's Catch,71555,US,Bayside,dr5x,-73.761,40.762
85899345926,7,Cafe Roma,18952,US,Wellton,9myc,-114.146,32.673
120259084330,43,The Food House,59829,FR,Paris,u09w,2.294,48.87
85899345920,1,Savoria,18952,US,Dillon,0000,,
42949672978,19,The Tasting Room,89646,US,Fort Wayne,dp73,-85.157,41.132
60129542207,64,Chateau de Cuisine,71555,GB,London,gcpv,-0.118,51.526
146028888091,28,The Spicy Pickle,70611,ES,Barcelona,sp3e,2.192,41.397
266287972378,27,The Corner Cafe,11263,ES,Barcelona,sp3e,2.166,41.396
249108103168,1,Savoria,55897,US,Miami Beach,dhx4,-80.132,25.774
68719476742,7,Cafe Roma,77517,US,San Clemente,9muq,-117.622,33.438
60129542158,15,The Pearl Kitchen,71555,US,Oklahoma City,9y69,-97.601,35.463
171798691860,21,The Lazy Daisy,65939,ES,Barcelona,sp3e,2.187,41.411
94489280573,62,Cafe Luminoso,95399,NL,Amsterdam,u173,4.881,52.36
68719476774,39,Cinnamon Grill,77517,AT,Vienna,u2ed,16.365,48.201
103079215159,56,The Waffle House,4340,FR,Paris,u09t,2.367,48.866
180388626498,67,Crimson and Clover,7531,GB,London,gcpv,-0.098,51.574
163208757282,35,Basilica Bistro,96638,US,Ithaca,dr99,-76.508,42.436
154618822689,34,The Tasty Treat,41484,US,Boise,9rtr,-116.216,43.569
163208757308,61,Blue Water Bistro,96638,FR,Paris,u09w,2.339,48.879
197568495625,10,The Golden Spoon,24784,US,Decatur,dn4h,-87.021,34.578
17179869242,59,Azalea Cafe,10902,FR,Paris,u09t,2.368,48.861
214748364826,27,The Corner Cafe,92040,US,Rapid City,9xyd,-103.25,44.08
154618822706,51,The Pizzeria,41484,AT,Vienna,u2ed,16.413,48.213
163208757312,65,Chef's Corner,96638,GB,London,gcpu,-0.191,51.495
68719476763,28,The Spicy Pickle,77517,US,Grayling,dpgw,-84.744,44.657
223338299419,28,The Spicy Pickle,36937,US,Oswego,dr9x,-76.532,43.452
240518168650,75,Greenhouse Cafe,93164,NL,Amsterdam,u173,4.897,52.37
128849018936,57,The Yellow Submarine,5679,FR,Paris,u09w,2.335,48.872
197568495635,20,The Brasserie,24784,US,Jeffersonville,dph9,-83.612,39.616
68719476768,33,The Blue Elephant,77517,IT,Milan,u0nd,9.146,45.479
51539607582,31,Bistro 42,6934,IT,Milan,u0nd,9.153,45.444
94489280554,43,The Food House,95399,FR,Paris,u09t,2.329,48.867
206158430215,8,The Green Olive,53370,US,Haltom City,9vff,-97.28,32.789
154618822657,2,Bella Cucina,41484,US,Fort Pierce,dhyg,-80.391,27.412
17179869217,34,The Tasty Treat,10902,US,Green Bay,dpcm,-88.077,44.476
8589934633,42,The Daily Scoop,12630,FR,Paris,u09t,2.343,48.854
240518168596,21,The Lazy Daisy,93164,US,Mendenhall,dr44,-75.646,39.86
171798691906,67,Crimson and Clover,65939,NL,Amsterdam,u173,4.894,52.361
42949673022,63,Cafe Paris,89646,GB,London,gcpv,-0.107,51.508
223338299416,25,The Cozy Cafe,36937,US,Great Barrington,dreb,-73.335,42.238
85899345943,24,The Fisherman's Catch,18952,ES,Barcelona,sp3e,2.174,41.385
55,56,The Waffle House,47732,FR,Paris,u09w,2.3,48.887
231928234012,29,The Olive Branch,33573,IT,Milan,u0n6,9.078,45.472
171798691866,27,The Corner Cafe,65939,IT,Milan,u0nd,9.167,45.452
266287972381,30,The Wine Cellar,11263,US,Chicago,dp3t,-87.723,41.797
8589934629,38,Cafe Viva,12630,AT,Vienna,u2ed,16.389,48.204
34359738401,34,The Tasty Treat,50333,AT,Vienna,u2ed,16.359,48.201
111669149720,25,The Cozy Cafe,84488,ES,Barcelona,sp3e,2.171,41.384
42949673016,57,The Yellow Submarine,89646,FR,Paris,u09w,2.294,48.876
188978561059,36,Blue Ocean Grill,3642,US,Kennebunkport,drty,-70.477,43.363
25769803787,12,The Wooden Spoon,72230,US,Napa,9qc1,-122.289,38.283
120259084327,40,Crimson Cafe,59829,FR,Paris,u09t,2.331,48.857
249108103222,55,The Steak House,55897,FR,Paris,u09t,2.345,48.85
25769803795,20,The Brasserie,72230,ES,Barcelona,sp3e,2.179,41.385
34359738395,28,The Spicy Pickle,50333,IT,Milan,u0nd,9.195,45.47
111669149696,1,Savoria,84488,US,Port Aransas,9ufy,-97.065,27.831
77309411331,4,The Blue Plate,78190,US,San Antonio,9v3b,-98.56,29.532
240518168626,51,The Pizzeria,93164,AT,Vienna,u2e9,16.322,48.164
214748364817,18,The Harvest Room,92040,ES,Barcelona,sp3e,2.171,41.37
249108103199,32,The Orange Peeler,55897,ES,Barcelona,sp3e,2.173,41.389
42949673007,48,The Local Cafe,89646,AT,Vienna,u2ed,16.383,48.213
17179869255,72,Flamingo Cafe,10902,GB,London,gcpv,-0.148,51.505
257698037821,62,Cafe Luminoso,26468,GB,London,gcpu,-0.01,51.48
154618822735,80,The Market Cafe,41484,NL,Amsterdam,u173,4.88,52.363
94489280558,47,The Juicy Burger,95399,FR,Paris,u09w,2.332,48.872
17179869198,15,The Pearl Kitchen,10902,US,Mariposa,9qdt,-119.967,37.487
266287972411,60,Big City Grill,11263,US,Celina,u09w,2.342,48.875
60129542151,8,The Green Olive,71555,US,Colton,9qh9,-117.338,34.02
231928234016,33,The Blue Elephant,33573,US,Umatilla,c25j,-119.289,45.921
85899345986,67,Crimson and Clover,18952,NL,Amsterdam,u173,4.877,52.35
214748364878,79,The Huckleberry Cafe,92040,NL,Amsterdam,u173,4.88,52.365
137438953513,42,The Daily Scoop,11038,FR,Paris,u09t,2.405,48.843
249108103180,13,The Firehouse,55897,US,Clinton,dnkj,-84.085,36.163
120259084322,35,Basilica Bistro,59829,AT,Vienna,u2ed,16.355,48.2
128849018881,2,Bella Cucina,5679,US,Clanton,djf6,-86.587,32.803
146028888075,12,The Wooden Spoon,70611,US,Burlington,dnrm,-79.495,36.07
103079215117,14,The Gourmet Garden,4340,US,Victorville,9qhs,-117.326,34.507
214748364807,8,The Green Olive,92040,US,Santa Barbara,9q4g,-119.738,34.44
111669149700,5,The Hungry Hippo,84488,US,Tucson,9t9p,-110.877,32.22
257698037804,45,The Green Bean,26468,FR,Paris,u09t,2.291,48.827
111669149750,55,The Steak House,84488,GB,London,gcpu,-0.278,51.492
146028888140,77,Harvest Kitchen,70611,GB,London,gcpu,-0.116,51.501
146028888101,38,Cafe Viva,70611,US,Bangor,drzn,-68.81,44.791
77309411381,54,The Spice House,78190,FR,Paris,u09w,2.333,48.884
34359738416,49,The Olive Tree,50333,FR,Paris,u09t,2.352,48.864
197568495639,24,The Fisherman's Catch,24784,US,Indiana,dppx,-79.13,40.62
146028888145,82,The Palate,70611,GB,London,gcpv,-0.136,51.517
223338299433,42,The Daily Scoop,36937,FR,Paris,u09w,2.301,48.875
214748364864,65,Chef's Corner,92040,FR,Paris,u09w,2.343,48.897
188978561074,51,The Pizzeria,3642,AT,Vienna,u2ed,16.38,48.213
197568495676,61,Blue Water Bistro,24784,FR,Paris,u09t,2.309,48.866
85899345983,64,Chateau de Cuisine,18952,GB,London,gcpv,-0.092,51.521
137438953491,20,The Brasserie,11038,US,Erie,dprp,-80.039,42.071
128849018922,43,The Food House,5679,US,Moses Lake,c275,-119.311,47.104
188978561025,2,Bella Cucina,3642,US,Palm Harbor,dhvp,-82.74,28.115
223338299446,55,The Steak House,36937,GB,London,gcpv,-0.118,51.517
240518168605,30,The Wine Cellar,93164,ES,Barcelona,sp3e,2.136,41.39
68719476799,64,Chateau de Cuisine,77517,NL,Amsterdam,u173,4.898,52.377
249108103228,61,Blue Water Bistro,55897,FR,Paris,u09w,2.331,48.884
128849018928,49,The Olive Tree,5679,FR,Paris,u09t,2.33,48.841
154618822677,22,The Red Pepper,41484,ES,Barcelona,sp3e,2.181,41.381
146028888130,67,Crimson and Clover,70611,FR,Paris,u09w,2.324,48.872
85899345930,11,The Flaming Wok,18952,US,Mount Airy,dnqx,-80.746,36.487
188978561061,38,Cafe Viva,3642,US,Fryeburg,drvd,-70.981,44.016
146028888090,27,The Corner Cafe,70611,ES,Barcelona,sp3e,2.167,41.387
206158430248,41,The Daily Bread,53370,IT,Milan,u0nd,9.176,45.452
25769803824,49,The Olive Tree,72230,AT,Vienna,u2ed,16.354,48.209
197568495686,71,Fire and Spice,24784,FR,Paris,u09w,2.329,48.88
111669149702,7,Cafe Roma,84488,US,Montgomery,djdx,-86.338,32.328
51539607567,16,The Spice Tree,6934,US,Mount Sterling,9zp7,-90.758,39.974
257698037818,59,Azalea Cafe,26468,FR,Paris,u09w,2.302,48.874
146028888124,61,Blue Water Bistro,70611,FR,Paris,u09t,2.349,48.848
8589934661,70,Earth and Vine,12630,NL,Amsterdam,u173,4.873,52.351
171798691899,60,Big City Grill,65939,GB,London,gcpv,-0.15,51.517
206158430286,79,The Huckleberry Cafe,53370,GB,London,gcpv,-0.146,51.506
214748364841,42,The Daily Scoop,92040,AT,Vienna,u2ed,16.357,48.222
249108103171,4,The Blue Plate,55897,US,Abbeville,dje7,-85.284,31.552
103079215163,60,Big City Grill,4340,FR,Paris,u09w,2.319,48.875
25769803829,54,The Spice House,72230,FR,Paris,u09w,2.331,48.868
111669149748,53,The Red Rooster,84488,US,Terre Haute,u1he,6.558,51.296
25,26,The Silver Spoon,47732,US,Crescent City,9prt,-124.203,41.748
223338299417,26,The Silver Spoon,36937,US,Freeport,dp82,-89.634,42.279
8589934650,59,Azalea Cafe,12630,GB,London,gcpu,-0.184,51.495
214748364844,45,The Green Bean,92040,FR,Paris,u09t,2.303,48.84
154618822668,13,The Firehouse,41484,US,Gatlinburg,dnke,-83.457,35.755
171798691856,17,The Rustic Table,65939,ES,Barcelona,sp3e,2.161,41.386
103079215175,72,Flamingo Cafe,4340,GB,London,gcpv,-0.12,51.516
38,39,Cinnamon Grill,47732,IT,Milan,u0nd,9.209,45.478
103079215178,75,Greenhouse Cafe,4340,NL,Amsterdam,u173,4.891,52.35
180388626503,72,Flamingo Cafe,7531,NL,Amsterdam,u173,4.889,52.37
51539607560,9,The Grill House,6934,US,Telluride,9wer,-107.813,37.936
231928234033,50,The Pancake House,33573,GB,London,gcpv,-0.088,51.505
85899345932,13,The Firehouse,18952,US,Lebanon,9ywn,-92.668,37.659
17179869261,78,The Hot Spot,10902,GB,London,gcpv,-0.062,51.516
249108103231,64,Chateau de Cuisine,55897,GB,London,gcpv,-0.13,51.51
94489280556,45,The Green Bean,95399,FR,Paris,u09w,2.333,48.868
206158430220,13,The Firehouse,53370,US,Glasgow,dndf,-85.934,36.985
77309411380,53,The Red Rooster,78190,FR,Paris,u09w,2.282,48.882
180388626476,45,The Green Bean,7531,FR,Paris,u09t,2.309,48.86
60129542189,46,The Italian Table,71555,FR,Paris,u09t,2.332,48.857
257698037826,67,Crimson and Clover,26468,GB,London,gcpv,-0.138,51.512
206158430280,73,Fresh Harvest,53370,GB,London,gcpu,-0.182,51.495
94489280538,27,The Corner Cafe,95399,ES,Barcelona,sp3e,2.16,41.394
154618822733,78,The Hot Spot,41484,GB,London,gcpv,-0.143,51.522
103079215148,45,The Green Bean,4340,US,Woodburn,c208,-122.884,45.152
146028888084,21,The Lazy Daisy,70611,US,Englewood,9xj3,-104.868,39.567
51539607561,10,The Golden Spoon,6934,US,Napa,9qc1,-122.276,38.315
94489280535,24,The Fisherman's Catch,95399,ES,Barcelona,sp3e,2.142,41.39
266287972385,34,The Tasty Treat,11263,US,Mccall,9rvr,-116.098,44.911
257698037771,12,The Wooden Spoon,26468,US,Lake Lure,dnm9,-82.172,35.452
266287972380,29,The Olive Branch,11263,US,Coudersport,dr2t,-78.021,41.773
223338299422,31,Bistro 42,36937,IT,Milan,u0nd,9.19,45.465
180388626469,38,Cafe Viva,7531,AT,Vienna,u2ed,16.346,48.195
111669149729,34,The Tasty Treat,84488,US,Hill City,9xy3,-103.535,43.944
85899345977,58,A Tasty Bite,18952,GB,London,gcpv,-0.183,51.514
180388626480,49,The Olive Tree,7531,FR,Paris,u09w,2.337,48.868
60129542156,13,The Firehouse,71555,US,Millington,dn21,-89.887,35.367
17179869250,67,Crimson and Clover,10902,GB,London,gcpu,-0.187,51.495
42949672973,14,The Gourmet Garden,89646,US,Stockton,9q9x,-121.328,37.956
249108103169,2,Bella Cucina,55897,US,Sarasota,dhv7,-82.45,27.3
197568495659,44,The French Kitchen,24784,AT,Vienna,u2ed,16.42,48.176
206158430208,1,Savoria,53370,US,Annapolis,d4c2,-88.038,15.499
60129542144,1,Savoria,71555,US,Mont Belvieu,d5dn,-86.868,20.875
223338299415,24,The Fisherman's Catch,36937,ES,Barcelona,sp3e,2.212,41.402
34359738380,13,The Firehouse,50333,US,New Stanton,dppk,-79.606,40.22
111669149734,39,Cinnamon Grill,84488,AT,Vienna,u2ed,16.367,48.194
51539607554,3,Spice Bazaar,6934,US,Gonzales,9vr7,-90.921,30.226
154618822661,6,The Daily Grind,41484,US,Millbrook,djf8,-86.384,32.46
266287972384,33,The Blue Elephant,11263,US,Appleton,dpch,-88.371,44.3
120259084345,58,A Tasty Bite,59829,GB,London,gcpv,-0.138,51.508
34359738429,62,Cafe Luminoso,50333,GB,London,gcpu,-0.137,51.499
214748364811,12,The Wooden Spoon,92040,US,Milford,dnun,-84.267,39.184
60129542205,62,Cafe Luminoso,71555,GB,London,gcpv,-0.123,51.518
163208757283,36,Blue Ocean Grill,96638,US,Holland,dpdg,-86.107,42.786
146028888069,6,The Daily Grind,70611,US,Leesville,9vt9,-93.263,31.145
223338299428,37,Cafe Crepe,36937,AT,Vienna,u2ed,16.403,48.257
231928234005,22,The Red Pepper,33573,ES,Barcelona,sp3e,2.209,41.413
197568495674,59,Azalea Cafe,24784,FR,Paris,u09t,2.361,48.864
197568495681,66,City Bites,24784,FR,Paris,u09w,2.344,48.872
180388626445,14,The Gourmet Garden,7531,US,Mount Vernon,dnb9,-88.949,38.311
35,36,Blue Ocean Grill,47732,IT,Milan,u0nd,9.192,45.457
231928234018,35,Basilica Bistro,33573,US,Coeur D Alene,c2kz,-116.903,47.664
188978561085,62,Cafe Luminoso,3642,FR,Paris,u09w,2.291,48.87
266287972435,84,The Pink Door,11263,NL,Amsterdam,u173,4.893,52.366
154618822727,72,Flamingo Cafe,41484,GB,London,gcpv,-0.132,51.508
249108103179,12,The Wooden Spoon,55897,US,Bryson City,dnk9,-83.462,35.42
60129542173,30,The Wine Cellar,71555,ES,Barcelona,sp3e,2.167,41.386
197568495627,12,The Wooden Spoon,24784,US,Southern Pines,dnr8,-79.41,35.16
214748364876,77,Harvest Kitchen,92040,NL,Amsterdam,u173,4.874,52.336
25769803800,25,The Cozy Cafe,72230,ES,Barcelona,sp3e,2.143,41.395
103079215162,59,Azalea Cafe,4340,FR,Paris,u09w,2.287,48.875
197568495687,72,Flamingo Cafe,24784,FR,Paris,u09w,2.33,48.885
42949673008,49,The Olive Tree,89646,AT,Vienna,u2ed,16.326,48.22
146028888065,2,Bella Cucina,70611,US,Eden,w1xj,100.065,9.486
17179869193,10,The Golden Spoon,10902,US,Portales,9wnd,-103.346,34.181
60129542163,20,The Brasserie,71555,US,Elkridge,dqcq,-76.756,39.184
45,46,The Italian Table,47732,AT,Vienna,u2ed,16.372,48.21
103079215125,22,The Red Pepper,4340,US,Raton,9wt9,-104.442,36.91
18,19,The Tasting Room,47732,US,Kearney,9z1x,-99.085,40.683
42949673004,45,The Green Bean,89646,AT,Vienna,u2ed,16.346,48.194
103079215127,24,The Fisherman's Catch,4340,US,Alexandria,dqch,-77.045,38.805
8589934594,3,Spice Bazaar,12630,US,Los Angeles,9q5c,-118.421,33.998
206158430264,57,The Yellow Submarine,53370,FR,Paris,u09t,2.321,48.835
154618822699,44,The French Kitchen,41484,US,Danforth,f2ps,-67.858,45.707
188978561040,17,The Rustic Table,3642,US,Hanford,9q6y,-119.656,36.32
111669149755,60,Big City Grill,84488,GB,London,gcpv,-0.129,51.517
128849018910,31,Bistro 42,5679,US,Warren,dprw,-79.169,41.836
60129542196,53,The Red Rooster,71555,FR,Paris,u09w,2.301,48.874
51539607605,54,The Spice House,6934,GB,London,gcpv,-0.105,51.505
180388626491,60,Big City Grill,7531,GB,London,gcpv,-0.152,51.507
154618822719,64,Chateau de Cuisine,41484,GB,London,gcpu,-0.176,51.494
77309411343,16,The Spice Tree,78190,US,Marion,dnw1,-81.414,36.868
257698037802,43,The Food House,26468,AT,Vienna,u2ed,16.422,48.235
171798691872,33,The Blue Elephant,65939,IT,Milan,u0nd,9.166,45.499
103079215153,50,The Pancake House,4340,AT,Vienna,u2ed,16.386,48.197
111669149717,22,The Red Pepper,84488,US,Bloomington,dp0w,-89.035,40.487
77309411346,19,The Tasting Room,78190,US,Livermore,9q9q,-121.814,37.701
214748364872,73,Fresh Harvest,92040,GB,London,gcpv,-0.076,51.512
214748364860,61,Blue Water Bistro,92040,FR,Paris,u09w,2.341,48.875
223338299425,34,The Tasty Treat,36937,IT,Milan,u0nd,9.204,45.486
163208757315,68,Delish Cafe,96638,GB,London,gcpv,-0.181,51.513
103079215116,13,The Firehouse,4340,US,Santa Barbara,9q4g,-119.693,34.41
249108103192,25,The Cozy Cafe,55897,US,New York,dr5r,-73.978,40.76
206158430295,88,The Royal Cafe,53370,NL,Amsterdam,u173,4.893,52.365
8589934599,8,The Green Olive,12630,US,Nashville,dn6j,-86.955,36.079
17179869226,43,The Food House,10902,AT,Vienna,u2ed,16.317,48.191
188978561024,1,Savoria,3642,US,Beaumont,d59u,-87.274,20.454
42949673013,54,The Spice House,89646,FR,Paris,u09w,2.329,48.87
68719476780,45,The Green Bean,77517,FR,Paris,u09w,2.298,48.872
249108103195,28,The Spicy Pickle,55897,ES,Barcelona,sp3e,2.146,41.377
146028888095,32,The Orange Peeler,70611,US,Gooding,9rwk,-114.713,42.945
206158430266,59,Azalea Cafe,53370,FR,Paris,u09t,2.375,48.845
206158430261,54,The Spice House,53370,AT,Vienna,u2ed,16.371,48.206
257698037803,44,The French Kitchen,26468,AT,Vienna,u2ed,16.429,48.239
25769803781,6,The Daily Grind,72230,US,Studio City,9q5f,-118.412,34.145
214748364820,21,The Lazy Daisy,92040,ES,Barcelona,sp3e,2.149,41.39
17179869215,32,The Orange Peeler,10902,US,Fairmont,9zub,-94.446,43.676
77309411329,2,Bella Cucina,78190,US,Bowling Green,dhvv,-81.824,27.598
188978561066,43,The Food House,3642,IT,Milan,u0nd,9.142,45.495
171798691848,9,The Grill House,65939,US,Gustine,9q9g,-121.016,37.112
68719476738,3,Spice Bazaar,77517,US,Orlando,djn4,-81.456,28.482
163208757269,22,The Red Pepper,96638,US,Normal,dp0w,-88.953,40.514
128849018907,28,The Spicy Pickle,5679,ES,Barcelona,sp3e,2.214,41.404
25769803833,58,A Tasty Bite,72230,FR,Paris,u09w,2.287,48.878
42949673027,68,Delish Cafe,89646,GB,London,gcpv,-0.081,51.524
77309411371,44,The French Kitchen,78190,FR,Paris,u09t,2.342,48.85
231928234009,26,The Silver Spoon,33573,US,Gorham,drvk,-71.125,44.393
128849018941,62,Cafe Luminoso,5679,GB,London,gcpu,-0.206,51.457
77309411335,8,The Green Olive,78190,US,Anaheim,9qh0,-117.915,33.797
214748364874,75,Greenhouse Cafe,92040,GB,London,gcpv,-0.123,51.521
206158430293,86,The Porch Cafe,53370,NL,Amsterdam,u179,4.925,52.345
266287972434,83,The Pantry,11263,NL,Amsterdam,u173,4.897,52.365
42949672982,23,The Hungry Pig,89646,ES,Barcelona,sp3e,2.193,41.393
51539607574,23,The Hungry Pig,6934,ES,Barcelona,sp3e,2.166,41.391
120259084310,23,The Hungry Pig,59829,ES,Barcelona,sp3e,2.156,41.394
146028888077,14,The Gourmet Garden,70611,US,Branson,9yt8,-93.267,36.651
68719476748,13,The Firehouse,77517,US,Santa Cruz,9q94,-122.021,36.965
94489280550,39,Cinnamon Grill,95399,US,Lynnwood,c290,-122.298,47.841
17179869243,60,Big City Grill,10902,FR,Paris,u09t,2.33,48.866
197568495655,40,Crimson Cafe,24784,IT,Milan,u0nd,9.176,45.482
146028888109,46,The Italian Table,70611,IT,Milan,u0nd,9.208,45.484
231928234025,42,The Daily Scoop,33573,FR,Paris,u09t,2.289,48.85
257698037814,55,The Steak House,26468,FR,Paris,u09t,2.327,48.867
257698037823,64,Chateau de Cuisine,26468,GB,London,gcpu,-0.143,51.494
120259084318,31,Bistro 42,59829,IT,Milan,u0nd,9.206,45.475
240518168586,11,The Flaming Wok,93164,US,Marina Del Rey,9q5c,-118.454,33.987
197568495642,27,The Corner Cafe,24784,ES,Barcelona,sp3e,2.17,41.379
34359738424,57,The Yellow Submarine,50333,FR,Paris,u09w,2.304,48.885
7,8,The Green Olive,47732,US,Batesville,dn05,-89.923,34.309
34359738422,55,The Steak House,50333,FR,Paris,u09w,2.325,48.876
206158430230,23,The Hungry Pig,53370,US,Somerset,dr4y,-74.545,40.551
197568495654,39,Cinnamon Grill,24784,IT,Milan,u0nd,9.192,45.481
94489280557,46,The Italian Table,95399,FR,Paris,u09w,2.353,48.868
188978561055,32,The Orange Peeler,3642,US,North Kingstown,drmh,-71.458,41.621
85899345969,50,The Pancake House,18952,FR,Paris,u09w,2.297,48.869
231928234028,45,The Green Bean,33573,FR,Paris,u09t,2.35,48.862
146028888073,10,The Golden Spoon,70611,US,Florence,dnp6,-79.731,34.266
240518168624,49,The Olive Tree,93164,US,Wheeler,c0pg,-123.882,45.69
197568495666,51,The Pizzeria,24784,FR,Paris,u09t,2.367,48.843
154618822707,52,The Red Door,41484,FR,Paris,u09t,2.288,48.833
103079215137,34,The Tasty Treat,4340,ES,Barcelona,sp3e,2.212,41.411
34359738382,15,The Pearl Kitchen,50333,US,New York,dr5r,-73.985,40.768
128849018880,1,Savoria,5679,US,New Orleans,9vrf,-90.066,29.962
77309411388,61,Blue Water Bistro,78190,GB,London,gcpu,-0.119,51.495
68719476775,40,Crimson Cafe,77517,AT,Vienna,u2ed,16.336,48.204
120259084301,14,The Gourmet Garden,59829,US,Stockton,9qc8,-121.351,38.006
257698037822,63,Cafe Paris,26468,GB,London,gcpu,-0.22,51.492
94489280517,6,The Daily Grind,95399,US,Chattanooga,dn5r,-85.226,34.995
51539607570,19,The Tasting Room,6934,ES,Barcelona,sp3e,2.143,41.379
163208757319,72,Flamingo Cafe,96638,GB,London,gcpv,-0.132,51.522
188978561062,39,Cinnamon Grill,3642,IT,Milan,u0nd,9.181,45.461
188978561045,22,The Red Pepper,3642,US,Sedalia,9yvs,-93.28,38.713
17179869189,6,The Daily Grind,10902,US,Ruidoso,9tuv,-105.674,33.352
25769803842,67,Crimson and Clover,72230,GB,London,gcpv,-0.17,51.542
197568495653,38,Cafe Viva,24784,IT,Milan,u0nd,9.195,45.479
51539607593,42,The Daily Scoop,6934,FR,Paris,u09t,2.371,48.847
214748364836,37,Cafe Crepe,92040,IT,Milan,u0nd,9.202,45.487
180388626451,20,The Brasserie,7531,ES,Barcelona,sp3e,2.167,41.389
249108103207,40,Crimson Cafe,55897,US,Utica,dpsf,-83.011,42.629
103079215165,62,Cafe Luminoso,4340,GB,London,gcpu,-0.178,51.493
103079215124,21,The Lazy Daisy,4340,US,Navajo Dam,9we3,-107.603,36.892
42949673010,51,The Pizzeria,89646,FR,Paris,u09t,2.34,48.85
68719476787,52,The Red Door,77517,GB,London,gcpv,-0.136,51.509
180388626490,59,Azalea Cafe,7531,GB,London,gcpv,-0.095,51.505
77309411337,10,The Golden Spoon,78190,US,Calhoun,dn5s,-84.914,34.47
85899345972,53,The Red Rooster,18952,FR,Paris,u09w,2.322,48.872
128849018900,21,The Lazy Daisy,5679,ES,Barcelona,sp3e,2.18,41.381
34359738433,66,City Bites,50333,GB,London,gcpv,-0.105,51.512
42949672962,3,Spice Bazaar,89646,US,Ruidoso,9tuv,-105.637,33.313
223338299421,30,The Wine Cellar,36937,IT,Milan,u0n6,9.069,45.459
146028888143,80,The Market Cafe,70611,GB,London,gcpv,-0.306,51.512
25769803808,33,The Blue Elephant,72230,US,Clinton Township,dpt4,-82.866,42.623
128849018944,65,Chef's Corner,5679,GB,London,gcpu,-0.183,51.494
60129542208,65,Chef's Corner,71555,GB,London,gcpv,-0.123,51.529
42949673023,64,Chateau de Cuisine,89646,GB,London,gcpv,-0.132,51.514
257698037769,10,The Golden Spoon,26468,US,Hesperia,9qhe,-117.384,34.428
42949672997,38,Cafe Viva,89646,IT,Milan,u0nd,9.187,45.469
34359738406,39,Cinnamon Grill,50333,AT,Vienna,u2ed,16.379,48.211
249108103239,72,Flamingo Cafe,55897,GB,London,gcpv,-0.283,51.527
188978561031,8,The Green Olive,3642,US,Roanoke,9vfg,-97.169,32.979
214748364813,14,The Gourmet Garden,92040,US,Keyser,dppb,-78.971,39.439
154618822729,74,Garden of Eatin',41484,GB,London,gcpv,-0.15,51.512
17179869262,79,The Huckleberry Cafe,10902,GB,Fitzrovia,gcpv,-0.137,51.529
51539607563,12,The Wooden Spoon,6934,US,Troy,dnbh,-89.914,38.735
171798691858,19,The Tasting Room,65939,ES,Barcelona,sp3e,2.13,41.4
17179869224,41,The Daily Bread,10902,US,Clatskanie,c20q,-123.199,46.102
25769803845,70,Earth and Vine,72230,NL,Amsterdam,u173,4.895,52.368
266287972393,42,The Daily Scoop,11263,AT,Vienna,u2ed,16.372,48.202
206158430262,55,The Steak House,53370,AT,Vienna,u2ed,16.38,48.214
51539607600,49,The Olive Tree,6934,FR,Paris,u09w,2.344,48.873
171798691857,18,The Harvest Room,65939,ES,Barcelona,sp3e,2.155,41.392
17179869187,4,The Blue Plate,10902,US,El Paso,9tsk,-106.343,31.751
231928233990,7,Cafe Roma,33573,US,Crossville,dn7s,-84.981,35.964
171798691901,62,Cafe Luminoso,65939,GB,London,gcpv,-0.126,51.52
154618822717,62,Cafe Luminoso,41484,FR,Paris,u09w,2.359,48.887
266287972396,45,The Green Bean,11263,AT,Vienna,u2ed,16.36,48.226
68719476797,62,Cafe Luminoso,77517,GB,London,gcpv,-0.083,51.526
68719476760,25,The Cozy Cafe,77517,US,Laconia,drtp,-71.469,43.526
103079215134,31,Bistro 42,4340,US,Stone Creek,sp2c,1.154,41.084
128849018908,29,The Olive Branch,5679,US,Port Clinton,dpmh,-82.934,41.513
68719476740,5,The Hungry Hippo,77517,US,Tallulah,9vz0,-91.199,32.385
231928233984,1,Savoria,33573,US,Edinburg,9udj,-98.248,26.334
266287972421,70,Earth and Vine,11263,GB,London,gcpu,-0.164,51.498
8589934641,50,The Pancake House,12630,FR,Paris,u09w,2.295,48.881
214748364823,24,The Fisherman's Catch,92040,ES,Barcelona,sp3e,2.189,41.398
197568495675,60,Big City Grill,24784,FR,Paris,u09t,2.328,48.865
206158430221,14,The Gourmet Garden,53370,US,Richmond,dq8v,-77.475,37.566
42949673002,43,The Food House,89646,US,Port Angeles,c283,-123.374,48.105
25769803786,11,The Flaming Wok,72230,US,Alamosa,9wst,-105.895,37.475
188978561056,33,The Blue Elephant,3642,US,Elkhart,dp6v,-85.977,41.735
257698037778,19,The Tasting Room,26468,US,Cheyenne,9xm3,-104.849,41.119
128849018901,22,The Red Pepper,5679,ES,Barcelona,sp3e,2.16,41.383
249108103178,11,The Flaming Wok,55897,US,Tucumcari,9wq0,-103.714,35.172
42949672971,12,The Wooden Spoon,89646,US,Silverton,9wer,-107.664,37.81
85899345937,18,The Harvest Room,18952,US,Columbia,dqcq,-76.847,39.176
188978561038,15,The Pearl Kitchen,3642,US,Fayetteville,dnpz,-78.961,35.076
128849018913,34,The Tasty Treat,5679,US,Saranac Lake,drgh,-74.337,44.305
188978561096,73,Fresh Harvest,3642,GB,London,gcpv,-0.142,51.508
85899345941,22,The Red Pepper,18952,ES,Barcelona,sp3e,2.141,41.38
188978561075,52,The Red Door,3642,AT,Vienna,u2ed,16.376,48.215
68719476743,8,The Green Olive,77517,US,Atlanta,dn5b,-84.398,33.792
51539607569,18,The Harvest Room,6934,US,Palmerton,dr60,-75.651,40.81
206158430219,12,The Wooden Spoon,53370,US,Abbeville,eysb,-4.501,36.623
34359738403,36,Blue Ocean Grill,50333,AT,Vienna,u2ed,16.355,48.206
223338299447,56,The Waffle House,36937,GB,Paddington,gcpv,-0.166,51.519
85899345966,47,The Juicy Burger,18952,FR,Paris,u09t,2.279,48.846
146028888108,45,The Green Bean,70611,IT,Milan,u0nd,9.203,45.483
25769803790,15,The Pearl Kitchen,72230,US,Langhorne,dr4s,-74.925,40.189
60129542200,57,The Yellow Submarine,71555,GB,London,gcpv,-0.086,51.504
42949673028,69,Dragonfly Cafe,89646,GB,London,gcpv,-0.168,51.529
240518168609,34,The Tasty Treat,93164,ES,Barcelona,sp3e,2.136,41.411
103079215110,7,Cafe Roma,4340,US,Sierra Vista,9t9e,-110.282,31.555
77309411396,69,Dragonfly Cafe,78190,NL,Amsterdam,u173,4.875,52.374
17179869210,27,The Corner Cafe,10902,ES,Barcelona,sp3e,2.179,41.401
85899345978,59,Azalea Cafe,18952,GB,London,gcpv,-0.091,51.514
206158430223,16,The Spice Tree,53370,US,San Francisco,9q8y,-122.411,37.784
197568495629,14,The Gourmet Garden,24784,US,Perry,9y6y,-97.33,36.288
197568495617,2,Bella Cucina,24784,US,Fort Lauderdale,dhwu,-80.372,26.086
17179869212,29,The Olive Branch,10902,US,Kenosha,dp9d,-87.829,42.625
163208757279,32,The Orange Peeler,96638,ES,Barcelona,sp3e,2.142,41.391
25769803782,7,Cafe Roma,72230,US,Prescott Valley,9w0h,-112.327,34.586
197568495643,28,The Spicy Pickle,24784,ES,Barcelona,sp3e,2.166,41.39
103079215128,25,The Cozy Cafe,4340,US,Chantilly,dqbv,-77.432,38.898
231928234001,18,The Harvest Room,33573,ES,Barcelona,sp3e,2.166,41.389
137438953501,30,The Wine Cellar,11038,IT,Milan,u0nd,9.199,45.484
180388626457,26,The Silver Spoon,7531,US,Fond Du Lac,dpc0,-88.476,43.755
223338299427,36,Blue Ocean Grill,36937,AT,Vienna,u2ed,16.355,48.208
257698037765,6,The Daily Grind,26468,US,Coronado,9mu9,-117.181,32.687
120259084297,10,The Golden Spoon,59829,US,Long Beach,9q5b,-118.189,33.789
266287972373,22,The Red Pepper,11263,ES,Barcelona,sp3e,2.126,41.386
111669149727,32,The Orange Peeler,84488,US,Boone,9zmp,-93.876,42.035
146028888087,24,The Fisherman's Catch,70611,ES,Barcelona,sp3e,2.179,41.379
77309411366,39,Cinnamon Grill,78190,AT,Vienna,u2ed,16.367,48.195
68719476744,9,The Grill House,77517,US,Statesville,dnq7,-80.881,35.807
206158430251,44,The French Kitchen,53370,IT,Milan,u0nd,9.204,45.483
214748364849,50,The Pancake House,92040,FR,Paris,u09t,2.338,48.851
42949672990,31,Bistro 42,89646,US,Riverton,9xdu,-108.381,43.045
266287972423,72,Flamingo Cafe,11263,GB,London,gcpu,-0.154,51.502
103079215107,4,The Blue Plate,4340,US,Montgomery,9v7u,-95.634,30.404
60129542145,2,Bella Cucina,71555,US,Princeville,87yw,-159.481,22.226
214748364833,34,The Tasty Treat,92040,IT,Milan,u0nd,9.18,45.459
120259084294,7,Cafe Roma,59829,US,Meridian,djbb,-88.692,32.35
17179869223,40,Crimson Cafe,10902,IT,Milan,u0nd,9.197,45.471
188978561072,49,The Olive Tree,3642,AT,Vienna,u2ed,16.377,48.207
180388626454,23,The Hungry Pig,7531,US,Woodstock,dp90,-88.433,42.303
154618822710,55,The Steak House,41484,FR,Paris,u09t,2.292,48.855
17179869265,82,The Palate,10902,NL,Amsterdam,u173,4.897,52.378
34359738427,60,Big City Grill,50333,GB,London,gcpu,-0.162,51.492
214748364803,4,The Blue Plate,92040,US,Sandersville,djv5,-82.806,33.007
77309411360,33,The Blue Elephant,78190,IT,Milan,u0nd,9.191,45.469
214748364819,20,The Brasserie,92040,ES,Barcelona,sp3e,2.136,41.389
214748364847,48,The Local Cafe,92040,FR,Paris,u09t,2.37,48.849
34359738370,3,Spice Bazaar,50333,US,New Orleans,dj24,-89.96,30.045
240518168611,36,Blue Ocean Grill,93164,US,Manassas,spqm,8.915,41.679
42949673006,47,The Juicy Burger,89646,AT,Vienna,u2ed,16.364,48.2
85899345931,12,The Wooden Spoon,18952,US,Petersburg,dq8g,-77.393,37.23
85899345980,61,Blue Water Bistro,18952,GB,London,gcpv,-0.144,51.518
85899345952,33,The Blue Elephant,18952,US,Ontario,9ruf,-116.944,44.026
206158430209,2,Bella Cucina,53370,US,Mobile,9exv,-101.381,20.683
